{
  "type": "FeatureCollection",
  "name": "heatmap-demo-overlays",
  "properties": {
    "note": "Itinerario critico: centro Cosenza (Maestri del Lavoro, Rossi, Repubblica, Roma) + Misasi, Piazza/Viale Europa, Via Panebianco, Kennedy; Citt\u00e0 2000: Via Pomponio Leto, Via Guglielmo Marconi, Via Torino, Via Don Minzoni. Esclusi SS107 e Via/Viale Giuseppe Garibaldi. Scuole: data/schools-poi.geojson.",
    "critical_segments_generated": "2026-05-03T20:49Z",
    "critical_segments_source": "OpenStreetMap (ways nominati), merge \u226425 m e \u2264650 m tra componenti; filtro bbox centro o corridoio nord; vie Citt\u00e0 2000 entro ~1,9 km dal place omonimo. Esclusione ref/nome SS107 e Garibaldi. ODbL."
  },
  "features": [
    {
      "type": "Feature",
      "properties": {
        "kind": "critical_segment",
        "name": "Itinerario critico \u2014 centro, Europa, Panebianco, Citt\u00e0 2000",
        "risk": "Contesto scolastico e flussi urbani: sicurezza e comfort per chi si muove a piedi e in bici (continuit\u00e0 ciclopedonale, velocit\u00e0, attraversamenti, qualit\u00e0 dell\u2019ambiente stradale) da analizzare tratto per tratto.",
        "notes": "Linea unica ~10.71 km da geometrie OSM (n\u224871 POI scuola nel progetto per buffer 300 m). Rigenera: scripts/update-critical-segments.sh.",
        "osm_filter": "named_ways:Cosenza_axis_Misasi_Europa_Panebianco_Kennedy_Citta2000_spine",
        "length_km": 10.71
      },
      "geometry": {
        "type": "LineString",
        "coordinates": [
          [
            16.2432642,
            39.3206144
          ],
          [
            16.2431779,
            39.3213004
          ],
          [
            16.243052,
            39.3222464
          ],
          [
            16.242941,
            39.3226759
          ],
          [
            16.242792,
            39.3231694
          ],
          [
            16.242583,
            39.3237415
          ],
          [
            16.2422845,
            39.3243462
          ],
          [
            16.2421429,
            39.3246062
          ],
          [
            16.2417768,
            39.325396
          ],
          [
            16.2417037,
            39.3255875
          ],
          [
            16.2416301,
            39.3257801
          ],
          [
            16.2417037,
            39.3255875
          ],
          [
            16.244133,
            39.3300468
          ],
          [
            16.2440747,
            39.3300999
          ],
          [
            16.244105,
            39.3301654
          ],
          [
            16.2441936,
            39.3301779
          ],
          [
            16.2442518,
            39.3301248
          ],
          [
            16.2442215,
            39.3300593
          ],
          [
            16.2441197,
            39.3317345
          ],
          [
            16.2441295,
            39.3313639
          ],
          [
            16.2441424,
            39.3307628
          ],
          [
            16.2441538,
            39.3302903
          ],
          [
            16.2441946,
            39.3300471
          ],
          [
            16.2441616,
            39.3299266
          ],
          [
            16.2441469,
            39.3297309
          ],
          [
            16.2441472,
            39.3294465
          ],
          [
            16.2441461,
            39.3291545
          ],
          [
            16.2441455,
            39.328988
          ],
          [
            16.2441449,
            39.32883
          ],
          [
            16.2441513,
            39.3284561
          ],
          [
            16.244154,
            39.3282751
          ],
          [
            16.2441612,
            39.3277966
          ],
          [
            16.2441602,
            39.3272841
          ],
          [
            16.2441599,
            39.3271485
          ],
          [
            16.2441872,
            39.326374
          ],
          [
            16.2441952,
            39.3261676
          ],
          [
            16.2442303,
            39.3256882
          ],
          [
            16.2443114,
            39.3252932
          ],
          [
            16.2443422,
            39.3251432
          ],
          [
            16.2445302,
            39.3242275
          ],
          [
            16.2446532,
            39.3236285
          ],
          [
            16.2448077,
            39.3227348
          ],
          [
            16.2448342,
            39.3225826
          ],
          [
            16.2449336,
            39.3219921
          ],
          [
            16.2450401,
            39.3214021
          ],
          [
            16.2452689,
            39.3201112
          ],
          [
            16.2452743,
            39.3199799
          ],
          [
            16.2452698,
            39.3198196
          ],
          [
            16.24528,
            39.3196447
          ],
          [
            16.2451987,
            39.3198004
          ],
          [
            16.2452759,
            39.3199407
          ],
          [
            16.2453226,
            39.3195098
          ],
          [
            16.245396,
            39.3192961
          ],
          [
            16.2455008,
            39.3187912
          ],
          [
            16.2455686,
            39.3183954
          ],
          [
            16.2456338,
            39.318025
          ],
          [
            16.245665,
            39.3178653
          ],
          [
            16.2456926,
            39.3177165
          ],
          [
            16.2457564,
            39.3173482
          ],
          [
            16.2458919,
            39.3165664
          ],
          [
            16.2460735,
            39.3155187
          ],
          [
            16.2460926,
            39.3154195
          ],
          [
            16.2461689,
            39.3149677
          ],
          [
            16.2462663,
            39.3143938
          ],
          [
            16.2463807,
            39.313667
          ],
          [
            16.2464868,
            39.3130463
          ],
          [
            16.2464748,
            39.312862
          ],
          [
            16.2465459,
            39.3127802
          ],
          [
            16.2467017,
            39.3119884
          ],
          [
            16.2467336,
            39.3117888
          ],
          [
            16.2468364,
            39.3112411
          ],
          [
            16.2468905,
            39.3109517
          ],
          [
            16.246921,
            39.310767
          ],
          [
            16.2470027,
            39.3103352
          ],
          [
            16.2470459,
            39.3100553
          ],
          [
            16.2470848,
            39.3097899
          ],
          [
            16.2471435,
            39.3094036
          ],
          [
            16.2471677,
            39.3092716
          ],
          [
            16.2474292,
            39.3078947
          ],
          [
            16.2475448,
            39.3072875
          ],
          [
            16.2449637,
            39.3057606
          ],
          [
            16.2451391,
            39.3057709
          ],
          [
            16.2453425,
            39.3056914
          ],
          [
            16.2454405,
            39.305564
          ],
          [
            16.245446,
            39.3054204
          ],
          [
            16.2453609,
            39.3052913
          ],
          [
            16.2452058,
            39.30521
          ],
          [
            16.2450396,
            39.3051946
          ],
          [
            16.2448662,
            39.3052441
          ],
          [
            16.2447256,
            39.3053852
          ],
          [
            16.2447079,
            39.3055291
          ],
          [
            16.2447802,
            39.3056601
          ],
          [
            16.2450239,
            39.3057715
          ],
          [
            16.2451067,
            39.3058409
          ],
          [
            16.2452699,
            39.3060188
          ],
          [
            16.2453397,
            39.3062507
          ],
          [
            16.2454063,
            39.3064658
          ],
          [
            16.245463,
            39.3066246
          ],
          [
            16.2455945,
            39.3068072
          ],
          [
            16.2455606,
            39.3066043
          ],
          [
            16.2454231,
            39.306062
          ],
          [
            16.2454151,
            39.3057602
          ],
          [
            16.2454114,
            39.3056199
          ],
          [
            16.2454775,
            39.3054518
          ],
          [
            16.2456217,
            39.3051924
          ],
          [
            16.246168,
            39.3046015
          ],
          [
            16.2461693,
            39.3045192
          ],
          [
            16.2466454,
            39.3040528
          ],
          [
            16.2469903,
            39.303735
          ],
          [
            16.2472984,
            39.3034519
          ],
          [
            16.2479711,
            39.3064346
          ],
          [
            16.2478684,
            39.3064334
          ],
          [
            16.2476607,
            39.3065329
          ],
          [
            16.2475116,
            39.3067306
          ],
          [
            16.2473967,
            39.3069413
          ],
          [
            16.2473907,
            39.3070726
          ],
          [
            16.2474798,
            39.307142
          ],
          [
            16.2476235,
            39.3071534
          ],
          [
            16.2478504,
            39.3070161
          ],
          [
            16.2480241,
            39.3067189
          ],
          [
            16.2480545,
            39.3065735
          ],
          [
            16.2479068,
            39.3064269
          ],
          [
            16.2479284,
            39.3055714
          ],
          [
            16.2479524,
            39.304615
          ],
          [
            16.2479559,
            39.3044764
          ],
          [
            16.247963,
            39.3041927
          ],
          [
            16.2479679,
            39.3035351
          ],
          [
            16.2479572,
            39.3029642
          ],
          [
            16.2479375,
            39.3026671
          ],
          [
            16.2479178,
            39.3024241
          ],
          [
            16.24788,
            39.3020021
          ],
          [
            16.2477341,
            39.301371
          ],
          [
            16.2476946,
            39.3011627
          ],
          [
            16.2475644,
            39.3004757
          ],
          [
            16.2473859,
            39.2995212
          ],
          [
            16.2473672,
            39.29929
          ],
          [
            16.2473626,
            39.2990465
          ],
          [
            16.2473534,
            39.2985579
          ],
          [
            16.2473425,
            39.2979802
          ],
          [
            16.2473429,
            39.2977972
          ],
          [
            16.2473541,
            39.2972609
          ],
          [
            16.24741,
            39.2954419
          ],
          [
            16.2475353,
            39.2938603
          ],
          [
            16.2476537,
            39.2929433
          ],
          [
            16.24763,
            39.292712
          ],
          [
            16.2475994,
            39.2925564
          ],
          [
            16.2477307,
            39.2926844
          ],
          [
            16.2476516,
            39.292711
          ],
          [
            16.2504484,
            39.2950771
          ],
          [
            16.2503891,
            39.2952002
          ],
          [
            16.2502228,
            39.2954903
          ],
          [
            16.2501453,
            39.2956256
          ],
          [
            16.2498945,
            39.2959893
          ],
          [
            16.2497828,
            39.2962256
          ],
          [
            16.2497256,
            39.2964542
          ],
          [
            16.2497348,
            39.2969112
          ],
          [
            16.2497492,
            39.2974595
          ],
          [
            16.2497762,
            39.2979743
          ],
          [
            16.2497923,
            39.2983304
          ],
          [
            16.2498035,
            39.2985328
          ],
          [
            16.2498104,
            39.2986653
          ],
          [
            16.2498673,
            39.2997528
          ],
          [
            16.2499015,
            39.3006618
          ],
          [
            16.2499283,
            39.3019507
          ],
          [
            16.2499384,
            39.3022981
          ],
          [
            16.2499517,
            39.3027558
          ],
          [
            16.2499562,
            39.3028888
          ],
          [
            16.2499747,
            39.3035262
          ],
          [
            16.2500249,
            39.3045272
          ],
          [
            16.2500356,
            39.3047026
          ],
          [
            16.2457116,
            39.3074634
          ],
          [
            16.2456312,
            39.3075051
          ],
          [
            16.2456402,
            39.3075654
          ],
          [
            16.2457316,
            39.3075916
          ],
          [
            16.2457928,
            39.3075396
          ],
          [
            16.2457751,
            39.3074874
          ],
          [
            16.2456791,
            39.307685
          ],
          [
            16.2456402,
            39.3075654
          ],
          [
            16.2456597,
            39.3088566
          ],
          [
            16.245622,
            39.308615
          ],
          [
            16.2455727,
            39.3083174
          ],
          [
            16.2455585,
            39.3081876
          ],
          [
            16.2455809,
            39.3080303
          ],
          [
            16.2456572,
            39.3080221
          ],
          [
            16.2456974,
            39.30824
          ],
          [
            16.2457485,
            39.3083541
          ],
          [
            16.2458671,
            39.3084473
          ],
          [
            16.2459051,
            39.3085354
          ],
          [
            16.2458449,
            39.3086425
          ],
          [
            16.245793,
            39.3087324
          ],
          [
            16.2457814,
            39.3088798
          ],
          [
            16.2457963,
            39.3091406
          ],
          [
            16.2464131,
            39.31296
          ],
          [
            16.2463762,
            39.3131785
          ],
          [
            16.246215,
            39.3141328
          ],
          [
            16.2461821,
            39.3143294
          ],
          [
            16.2461143,
            39.3147347
          ],
          [
            16.2460657,
            39.3150249
          ],
          [
            16.2460075,
            39.3153728
          ],
          [
            16.2459827,
            39.3155088
          ],
          [
            16.2458919,
            39.3160316
          ],
          [
            16.2458109,
            39.3164981
          ],
          [
            16.2456227,
            39.3175817
          ],
          [
            16.245665,
            39.3178653
          ]
        ]
      }
    }
  ]
}