{"type":"FeatureCollection","name":"osm-cycleways","properties":{"source":"OpenStreetMap via Overpass API","license":"ODbL 1.0","osm_timestamp":"2026-05-03T19:24:45Z"},"features":[{"type":"Feature","properties":{"highway":"cycleway","surface":"paved","osm_way_id":30692852},"geometry":{"type":"LineString","coordinates":[[16.2389401,39.3492837],[16.2389601,39.349077],[16.2389968,39.3490137],[16.2391101,39.3488836],[16.2393575,39.3486426],[16.2395652,39.3484519],[16.2395701,39.348447],[16.2398001,39.3482335],[16.2400268,39.3480141],[16.240245,39.347745],[16.2404568,39.3473902],[16.2405697,39.3471435],[16.2405912,39.3471096],[16.240613,39.3470753],[16.2405841,39.3469887],[16.2403598,39.3469332],[16.2403245,39.3469021],[16.2402426,39.3468658],[16.2399443,39.346802],[16.2398358,39.3467789],[16.2397442,39.3467593],[16.239359,39.3464495],[16.2392613,39.3463933],[16.2389604,39.3463842],[16.2389056,39.3463634],[16.2388879,39.3463396],[16.2388803,39.3463142],[16.2388664,39.3460333],[16.2387943,39.3458077],[16.2387723,39.3457665],[16.2387399,39.345703],[16.238612,39.3454566],[16.2385013,39.3452511],[16.2384394,39.3451435],[16.2382249,39.3447858],[16.238163,39.3446355],[16.238171,39.3444839],[16.2381882,39.344396],[16.2382678,39.3442297],[16.2383287,39.3440998],[16.2385147,39.3438774],[16.238759,39.3435996],[16.2388943,39.3434757],[16.2389048,39.3434636],[16.2390684,39.3432963],[16.2392245,39.34314],[16.2393791,39.3430042],[16.2395107,39.3429577],[16.2396057,39.3429937],[16.2396655,39.3430199],[16.2396731,39.3430232],[16.2398905,39.3430964],[16.2400001,39.3431495],[16.240037,39.3432384],[16.2400467,39.3433317],[16.2400602,39.343414]]}},{"type":"Feature","properties":{"bicycle":"designated","foot":"designated","highway":"cycleway","surface":"paved","osm_way_id":30692855},"geometry":{"type":"LineString","coordinates":[[16.2397871,39.3453196],[16.2401245,39.3456137],[16.240197,39.3456794],[16.2402653,39.345822],[16.2403133,39.3460261],[16.2403181,39.3460466],[16.2403382,39.3462495],[16.2403215,39.346502],[16.2403232,39.346725],[16.2403245,39.3469021]]}},{"type":"Feature","properties":{"bicycle":"designated","check_date:surface":"2025-02-08","cycleway:surface":"asphalt","foot":"designated","footway:surface":"concrete:plates","highway":"cycleway","lit":"yes","segregated":"yes","surface":"paved","osm_way_id":120802304},"geometry":{"type":"LineString","coordinates":[[16.2540197,39.3087317],[16.2538919,39.3093266],[16.2538928,39.3093657],[16.2539092,39.3093926],[16.2539327,39.3094106],[16.2539575,39.3094162],[16.2539683,39.3094186],[16.2540126,39.3094242],[16.2540349,39.3094154],[16.254076,39.3093929],[16.2541814,39.3089438],[16.2541636,39.3088967],[16.2541436,39.308867],[16.2541386,39.3088595],[16.2541003,39.3088031],[16.2540197,39.3087317],[16.2540391,39.3086272],[16.2540485,39.308584],[16.254067,39.308491],[16.2542284,39.3076655],[16.2544346,39.3066845],[16.2545165,39.3062821],[16.2544815,39.3061755],[16.2544515,39.3061306],[16.2544126,39.3060585],[16.2544057,39.3060141],[16.2544096,39.3059625],[16.2544312,39.3059137],[16.2546131,39.3054774],[16.2546506,39.3054069],[16.2548141,39.3050863],[16.2549904,39.304282],[16.2552116,39.3031385],[16.2552296,39.3030681],[16.2552065,39.3030124],[16.2552635,39.3027255],[16.2553389,39.3023698],[16.2554027,39.302057],[16.2554798,39.3016786],[16.2555432,39.301369],[16.2556243,39.3010025],[16.2556945,39.3006479],[16.2558443,39.2999482],[16.2559321,39.2995258],[16.2560245,39.2990949],[16.2560685,39.2988747],[16.2561174,39.298644],[16.2562134,39.2981872],[16.2562774,39.2979028],[16.2563368,39.2976136],[16.2564193,39.2972231],[16.2564214,39.2972135],[16.2564587,39.29704],[16.2565393,39.2965523],[16.2565456,39.2965476],[16.2565684,39.2965307],[16.2566135,39.2965144],[16.2567302,39.2965424],[16.2570757,39.2966364],[16.257106,39.296649],[16.2571223,39.2966734],[16.2568323,39.29719],[16.2565019,39.2977958],[16.2564705,39.2978757],[16.256434,39.2982153],[16.2563153,39.2987602],[16.2562281,39.2988007],[16.2560685,39.2988747]]}},{"type":"Feature","properties":{"bicycle":"designated","foot":"designated","highway":"cycleway","segregated":"no","surface":"compacted","osm_way_id":120802308},"geometry":{"type":"LineString","coordinates":[[16.2525842,39.3162215],[16.2524866,39.3163246],[16.2524633,39.3165133]]}},{"type":"Feature","properties":{"highway":"cycleway","surface":"asphalt","osm_way_id":121897757},"geometry":{"type":"LineString","coordinates":[[16.2378061,39.3498282],[16.2378837,39.3501807],[16.2379258,39.3503724],[16.2379432,39.350394],[16.2379824,39.3504055],[16.238672,39.3504258],[16.238702,39.3504297],[16.238844,39.3504738],[16.2389904,39.3505111],[16.2391613,39.3505165],[16.2394058,39.350479],[16.2395303,39.3504699],[16.2395888,39.3504719],[16.239636,39.3504736],[16.2399547,39.3504641],[16.2402149,39.3504769],[16.2405307,39.3504961],[16.240808,39.3504663],[16.2410881,39.3504181],[16.2411086,39.3504145],[16.2412198,39.3504065],[16.2413051,39.3504279],[16.2414865,39.3505004],[16.2416059,39.3505111],[16.2418534,39.3504641],[16.2420604,39.3503894],[16.2421599,39.3503443],[16.2422481,39.3502657],[16.2422886,39.350174],[16.2423036,39.3499286],[16.242331,39.3489672],[16.2423313,39.3489579],[16.2423334,39.3487019],[16.2423462,39.3480299],[16.2423258,39.3479493],[16.2422763,39.3478587],[16.2421711,39.3477523],[16.2420234,39.347626],[16.2417873,39.3474645],[16.2416998,39.347441],[16.2414516,39.3474817],[16.2413478,39.3474944],[16.2409634,39.3474965],[16.2405264,39.3474346],[16.2404902,39.3474115],[16.2404568,39.3473902]]}},{"type":"Feature","properties":{"bicycle":"designated","foot":"designated","highway":"cycleway","name":"Viale Giacomo Mancini","surface":"concrete","osm_way_id":172851503},"geometry":{"type":"LineString","coordinates":[[16.2521699,39.3180548],[16.2520207,39.318565],[16.251961,39.3189328],[16.2519356,39.3190751],[16.2518133,39.3195834],[16.2517759,39.3198575],[16.2517083,39.3201165],[16.2516761,39.3203956]]}},{"type":"Feature","properties":{"bicycle":"designated","highway":"cycleway","lit":"yes","oneway":"yes","surface":"concrete","osm_way_id":173179006},"geometry":{"type":"LineString","coordinates":[[16.246698,39.3446078],[16.2466857,39.3446827],[16.2464065,39.3461574],[16.2463916,39.3462359],[16.2464511,39.3463086],[16.246478,39.3463537],[16.2465066,39.3464318],[16.2464651,39.3465243],[16.2464009,39.3465826],[16.2463023,39.3466196],[16.2462065,39.3466268],[16.2461172,39.3466097],[16.2460226,39.3465541],[16.2458936,39.3464715],[16.2458246,39.3464699],[16.2444447,39.3464384],[16.2443615,39.3464369]]}},{"type":"Feature","properties":{"bicycle":"designated","bridge":"yes","foot":"yes","highway":"cycleway","layer":"1","lit":"yes","oneway":"yes","surface":"concrete","osm_way_id":173179008},"geometry":{"type":"LineString","coordinates":[[16.2467418,39.3443287],[16.246698,39.3446078]]}},{"type":"Feature","properties":{"highway":"cycleway","oneway":"yes","osm_way_id":173179011},"geometry":{"type":"LineString","coordinates":[[16.2495552,39.3314501],[16.2495394,39.3315132],[16.2493981,39.3315129],[16.2492739,39.3315897],[16.2492458,39.331692],[16.2490507,39.3326131],[16.2485131,39.3351559],[16.24822,39.3365477],[16.2482141,39.3366027],[16.2482355,39.3366654],[16.2482579,39.3366983],[16.2482914,39.336739],[16.2483385,39.3367883],[16.2484161,39.336817],[16.2484014,39.3368647]]}},{"type":"Feature","properties":{"bicycle":"designated","highway":"cycleway","lit":"yes","oneway":"yes","surface":"asphalt","osm_way_id":173179012},"geometry":{"type":"LineString","coordinates":[[16.2476853,39.339386],[16.2476574,39.3394376],[16.2476545,39.3394524],[16.2474103,39.3407043],[16.2470477,39.3425627],[16.2469037,39.3433019],[16.2469903,39.3434686],[16.2469876,39.3435515],[16.2469232,39.3436822],[16.2468588,39.3437299],[16.246829,39.343776],[16.2467519,39.3442595],[16.2467418,39.3443287]]}},{"type":"Feature","properties":{"highway":"cycleway","lit":"yes","oneway":"yes","osm_way_id":173537165},"geometry":{"type":"LineString","coordinates":[[16.2474582,39.338912],[16.2474999,39.3388338],[16.2476666,39.3380116],[16.2478525,39.3370946],[16.2478666,39.3370252],[16.2478507,39.3369905],[16.2478095,39.3369371],[16.2477365,39.3368542],[16.2476254,39.3368362],[16.2476479,39.3367628],[16.2476663,39.3367097],[16.2477663,39.3367074],[16.247945,39.3365817],[16.2479603,39.3365143],[16.248259,39.3351259],[16.2488071,39.3325845],[16.2490049,39.3316673],[16.2490073,39.3316564],[16.2489934,39.3315438],[16.2489219,39.3314386],[16.2487758,39.3313877],[16.2487938,39.3313233]]}},{"type":"Feature","properties":{"bicycle":"designated","bridge":"yes","foot":"yes","highway":"cycleway","layer":"1","lit":"yes","oneway":"yes","surface":"concrete","osm_way_id":173537166},"geometry":{"type":"LineString","coordinates":[[16.2464603,39.34458],[16.2465099,39.3443082]]}},{"type":"Feature","properties":{"bicycle":"designated","highway":"cycleway","lit":"yes","oneway":"yes","surface":"concrete","osm_way_id":173537167},"geometry":{"type":"LineString","coordinates":[[16.2443687,39.3463084],[16.2444498,39.3463148],[16.2458194,39.3463646],[16.2458604,39.3463607]]}},{"type":"Feature","properties":{"bicycle":"designated","highway":"cycleway","lit":"yes","oneway":"yes","surface":"concrete","osm_way_id":173537168},"geometry":{"type":"LineString","coordinates":[[16.2465099,39.3443082],[16.2465166,39.3442822],[16.2465207,39.3442361],[16.2465216,39.3441509],[16.2465994,39.3437278],[16.2464471,39.3434696],[16.2464866,39.3434238],[16.2464946,39.3434146],[16.2465072,39.3434],[16.2465249,39.3433794],[16.2465987,39.343368],[16.2466768,39.3433072],[16.2468184,39.3425371],[16.2471611,39.3406742],[16.2473924,39.3394173],[16.2473949,39.3394032],[16.2473869,39.3392996]]}},{"type":"Feature","properties":{"highway":"cycleway","osm_way_id":259913770},"geometry":{"type":"LineString","coordinates":[[16.2423552,39.3512527],[16.2422971,39.3510827],[16.2421537,39.3511188],[16.2420506,39.3511447],[16.241032,39.3513179],[16.2403437,39.3511923],[16.2395519,39.3511757],[16.2392174,39.3512179],[16.2389665,39.3512495],[16.2383725,39.3513086],[16.2381038,39.3513353],[16.2374414,39.3513424],[16.2372688,39.3513329]]}},{"type":"Feature","properties":{"highway":"cycleway","osm_way_id":259913771},"geometry":{"type":"LineString","coordinates":[[16.2372965,39.3505865],[16.2371672,39.3506777],[16.2373115,39.35075],[16.2373859,39.3507873],[16.2378881,39.3509255],[16.2380791,39.3509184],[16.2381993,39.3509136],[16.2385444,39.3508874],[16.2391359,39.3507444],[16.2397552,39.3507325],[16.2402143,39.3507373],[16.2408176,39.3507902],[16.2410183,39.3508078],[16.2416041,39.3507402],[16.2419084,39.3506608],[16.242181,39.3505623],[16.2422297,39.3505956],[16.242273,39.3506252],[16.2422071,39.3504763]]}},{"type":"Feature","properties":{"bicycle":"designated","foot":"yes","highway":"cycleway","osm_way_id":259913785},"geometry":{"type":"LineString","coordinates":[[16.2427612,39.3467949],[16.2430704,39.346668],[16.2435763,39.3464677],[16.2437325,39.3463927]]}},{"type":"Feature","properties":{"bridge":"yes","highway":"cycleway","layer":"1","osm_way_id":301672254},"geometry":{"type":"LineString","coordinates":[[16.2506189,39.3252976],[16.250522,39.325696]]}},{"type":"Feature","properties":{"bicycle":"designated","highway":"cycleway","lit":"yes","oneway":"yes","surface":"concrete","osm_way_id":327418995},"geometry":{"type":"LineString","coordinates":[[16.2458604,39.3463607],[16.2459791,39.3463224],[16.2461306,39.3462],[16.24615,39.3461267],[16.2464424,39.3446642],[16.2464603,39.34458]]}},{"type":"Feature","properties":{"bicycle":"designated","highway":"cycleway","oneway":"yes","osm_way_id":327418998},"geometry":{"type":"LineString","coordinates":[[16.2440356,39.3460135],[16.2441274,39.3460168],[16.2441232,39.3460717],[16.2441423,39.3461359],[16.2441968,39.3461705],[16.2442333,39.3461925],[16.2442723,39.3462327],[16.2443191,39.3462658],[16.2443693,39.3462837],[16.2443687,39.3463084]]}},{"type":"Feature","properties":{"bicycle":"designated","highway":"cycleway","oneway":"yes","osm_way_id":327418999},"geometry":{"type":"LineString","coordinates":[[16.2443615,39.3464369],[16.2442761,39.3464519],[16.244206,39.3464778],[16.2441812,39.3464953],[16.2441389,39.346525],[16.2440993,39.3465737],[16.2440932,39.3466672],[16.244039,39.3466651],[16.2439348,39.3466614],[16.2438882,39.34666],[16.2438892,39.346627],[16.2438861,39.3465916],[16.2438831,39.3465546],[16.243879,39.3465397],[16.2437571,39.3463919],[16.2437325,39.3463927]]}},{"type":"Feature","properties":{"highway":"cycleway","osm_way_id":362159090},"geometry":{"type":"LineString","coordinates":[[16.2515786,39.3028472],[16.2515787,39.3028993],[16.2516605,39.3029075],[16.251711,39.3029251],[16.250395,39.3047911]]}},{"type":"Feature","properties":{"highway":"cycleway","lit":"yes","surface":"paving_stones","osm_way_id":362159091},"geometry":{"type":"LineString","coordinates":[[16.2523134,39.3029626],[16.2522446,39.302961],[16.2521417,39.3040034]]}},{"type":"Feature","properties":{"highway":"cycleway","lit":"yes","surface":"paving_stones","osm_way_id":362159092},"geometry":{"type":"LineString","coordinates":[[16.2521417,39.3040034],[16.2520021,39.3052252]]}},{"type":"Feature","properties":{"highway":"cycleway","lit":"yes","surface":"paving_stones","osm_way_id":362159093},"geometry":{"type":"LineString","coordinates":[[16.2520021,39.3052252],[16.2519867,39.3058319]]}},{"type":"Feature","properties":{"highway":"cycleway","osm_way_id":362159094},"geometry":{"type":"LineString","coordinates":[[16.2518551,39.3018783],[16.2518585,39.3018436],[16.2519761,39.300821]]}},{"type":"Feature","properties":{"highway":"cycleway","osm_way_id":362159095},"geometry":{"type":"LineString","coordinates":[[16.2519761,39.300821],[16.2520862,39.2999759]]}},{"type":"Feature","properties":{"highway":"cycleway","osm_way_id":362159096},"geometry":{"type":"LineString","coordinates":[[16.2520862,39.2999759],[16.2522206,39.2988549],[16.2522316,39.2987854]]}},{"type":"Feature","properties":{"highway":"cycleway","oneway":"yes","osm_way_id":393855899},"geometry":{"type":"LineString","coordinates":[[16.2509811,39.3240035],[16.2510063,39.3240167],[16.2510072,39.3240345],[16.2509833,39.3240489],[16.2509594,39.3240365],[16.2509568,39.3240194],[16.2509811,39.3240035]]}},{"type":"Feature","properties":{"bicycle":"yes","foot":"designated","highway":"cycleway","name":"Viale Giacomo Mancini","segregated":"no","surface":"concrete","osm_way_id":393864038},"geometry":{"type":"LineString","coordinates":[[16.2514258,39.3215478],[16.2513785,39.3217829],[16.2513017,39.3220583],[16.2511296,39.3229479],[16.2511226,39.3229901],[16.2511181,39.323017],[16.2511147,39.3230793],[16.2510753,39.3234062],[16.2510023,39.3237014],[16.2509852,39.3239076],[16.2509849,39.3239141],[16.2509811,39.3240035]]}},{"type":"Feature","properties":{"highway":"cycleway","osm_way_id":393864043},"geometry":{"type":"LineString","coordinates":[[16.2514036,39.3211079],[16.2515142,39.3211231],[16.2516028,39.3211358],[16.2516415,39.3211414]]}},{"type":"Feature","properties":{"bicycle":"yes","foot":"designated","highway":"cycleway","name":"Viale Giacomo Mancini","segregated":"no","surface":"concrete","osm_way_id":393864048},"geometry":{"type":"LineString","coordinates":[[16.251651,39.3204651],[16.2515361,39.3209442],[16.2515142,39.3211231],[16.251437,39.3214988]]}},{"type":"Feature","properties":{"highway":"cycleway","osm_way_id":393864063},"geometry":{"type":"LineString","coordinates":[[16.2516756,39.3198483],[16.2517759,39.3198575],[16.2518756,39.3198716],[16.2519153,39.3198772]]}},{"type":"Feature","properties":{"highway":"cycleway","osm_way_id":393864065},"geometry":{"type":"LineString","coordinates":[[16.2519356,39.3190751],[16.251846,39.3190679]]}},{"type":"Feature","properties":{"highway":"cycleway","osm_way_id":393864069},"geometry":{"type":"LineString","coordinates":[[16.251961,39.3189328],[16.2520721,39.318949],[16.2521093,39.3189545]]}},{"type":"Feature","properties":{"highway":"cycleway","osm_way_id":393864073},"geometry":{"type":"LineString","coordinates":[[16.2520618,39.3180143],[16.2521699,39.3180548],[16.2522522,39.3180801],[16.252293,39.3180926]]}},{"type":"Feature","properties":{"bicycle":"designated","foot":"designated","highway":"cycleway","lit":"yes","surface":"concrete","osm_way_id":393875617},"geometry":{"type":"LineString","coordinates":[[16.2535777,39.3114032],[16.2535759,39.3114143],[16.2535741,39.311426],[16.2535667,39.3114502],[16.2535593,39.3114743],[16.2535427,39.3115552],[16.2535348,39.3116418],[16.2534876,39.3117539],[16.2534384,39.3118484],[16.2534482,39.3119311],[16.2534258,39.3120977],[16.2534029,39.3122361],[16.2533951,39.3124526],[16.25334,39.3125746],[16.2532593,39.3127163],[16.2532632,39.3128974],[16.2532278,39.31311],[16.2531432,39.3133717],[16.2530939,39.3134563],[16.2530487,39.3136039],[16.2530644,39.3136787],[16.2530861,39.3137338],[16.2530841,39.3138224],[16.2530447,39.3138755],[16.2529857,39.3139306],[16.2529562,39.3140192],[16.2529483,39.3141629],[16.2529778,39.3142534],[16.2529424,39.314403],[16.2528696,39.3146333],[16.2528617,39.3148301],[16.2528519,39.3149344],[16.2527869,39.3150446],[16.2527318,39.3151292],[16.2527067,39.3155492],[16.2525842,39.3162215],[16.252552,39.316376],[16.2525211,39.3164437],[16.2524633,39.3165133],[16.2524425,39.3167415],[16.252415,39.3168454],[16.2523824,39.316993],[16.252387,39.3171396],[16.2523362,39.3172803],[16.2522634,39.3176484]]}},{"type":"Feature","properties":{"foot":"yes","highway":"cycleway","surface":"paved","osm_way_id":457082366},"geometry":{"type":"LineString","coordinates":[[16.265192,39.2868809],[16.2652146,39.2869142],[16.2653902,39.2868379],[16.2657719,39.2866435]]}},{"type":"Feature","properties":{"highway":"cycleway","surface":"paved","osm_way_id":457082367},"geometry":{"type":"LineString","coordinates":[[16.2679786,39.2855581],[16.2679549,39.2855232],[16.2681783,39.2854123],[16.2688419,39.2851073],[16.2690135,39.2849583],[16.2694843,39.2847003],[16.2696636,39.2846518],[16.270075,39.2843971],[16.2701928,39.2842402],[16.2704049,39.2841108],[16.2705913,39.2839971],[16.2709647,39.2837692],[16.2711431,39.2837176],[16.2719807,39.2831942],[16.2720921,39.2830124],[16.2722165,39.2828582]]}},{"type":"Feature","properties":{"highway":"cycleway","osm_way_id":457082369},"geometry":{"type":"LineString","coordinates":[[16.2769827,39.2782633],[16.2766976,39.2785397],[16.2766055,39.2786209],[16.2764949,39.2787184],[16.276479,39.2788432],[16.2763373,39.2790582],[16.2761805,39.27945],[16.275952,39.2799278],[16.2759155,39.2799518],[16.2758511,39.2799554],[16.2753676,39.2807037],[16.2754418,39.2808036],[16.2754981,39.2808631],[16.274915,39.2819704],[16.2747658,39.2821547],[16.2745656,39.2823114],[16.274383,39.2823948],[16.274053,39.2824935],[16.2728658,39.2826226],[16.2727662,39.2826332],[16.272599,39.2826706],[16.2724252,39.2827387],[16.2722165,39.2828582]]}},{"type":"Feature","properties":{"highway":"cycleway","osm_way_id":499312297},"geometry":{"type":"LineString","coordinates":[[16.2500075,39.30197],[16.2500155,39.302526],[16.2500227,39.3028432]]}},{"type":"Feature","properties":{"highway":"cycleway","osm_way_id":499312298},"geometry":{"type":"LineString","coordinates":[[16.2522206,39.2988549],[16.2525397,39.2988916],[16.2525788,39.2989018],[16.2527586,39.2993665]]}},{"type":"Feature","properties":{"highway":"cycleway","osm_way_id":547718246},"geometry":{"type":"LineString","coordinates":[[16.2518585,39.3018436],[16.2518189,39.3018444],[16.2517768,39.301845],[16.2517283,39.3018496],[16.2517279,39.3018842],[16.2517266,39.3019087],[16.2500075,39.30197],[16.249929,39.3019749],[16.2491178,39.302003],[16.2491205,39.3019673],[16.2491229,39.3019359],[16.2485591,39.3019375],[16.2479249,39.3019576],[16.2479327,39.3020002],[16.2480843,39.3028955],[16.2481271,39.3028923],[16.2481265,39.3029219],[16.2481313,39.3029695],[16.2492095,39.3029458],[16.2492074,39.3029019],[16.2492066,39.302877],[16.2499546,39.3028557],[16.2500227,39.3028432],[16.2505185,39.3028355],[16.2512249,39.3028149],[16.2515783,39.3028123],[16.2515786,39.3028472]]}},{"type":"Feature","properties":{"highway":"cycleway","surface":"paved","osm_way_id":810547546},"geometry":{"type":"LineString","coordinates":[[16.2378061,39.3498282],[16.2378045,39.3498159],[16.2378127,39.3498054],[16.2378879,39.3497868]]}},{"type":"Feature","properties":{"highway":"cycleway","horse":"no","name":"Pista ciclabile","osm_way_id":895015914},"geometry":{"type":"LineString","coordinates":[[16.2290369,39.3113826],[16.2291603,39.3114915],[16.2294848,39.3116746],[16.2298819,39.3118422],[16.2301702,39.3119117],[16.2327838,39.312266],[16.2334224,39.3123451],[16.2339227,39.3124181],[16.2340447,39.3124586],[16.2347477,39.3127535],[16.2350672,39.3129158],[16.2368094,39.31406],[16.2368863,39.314089],[16.2369636,39.3141032],[16.2370349,39.314102],[16.2374386,39.3139589]]}},{"type":"Feature","properties":{"highway":"cycleway","osm_way_id":895015915},"geometry":{"type":"LineString","coordinates":[[16.2432085,39.3208081],[16.2433125,39.3209873],[16.2435575,39.3213177],[16.2440905,39.3220502],[16.2446667,39.3227217],[16.2448948,39.3229265],[16.2453225,39.3233214],[16.245662,39.3235044],[16.2461766,39.3235818],[16.2465215,39.323594],[16.2466557,39.3236512],[16.2467471,39.3236542],[16.2468672,39.3236082],[16.248088,39.3236572],[16.2481416,39.3236728],[16.2481929,39.3237067],[16.2482012,39.3237604],[16.248258,39.323769],[16.2483455,39.3237817],[16.2484093,39.3237919],[16.248438,39.3237963],[16.2487302,39.3238111],[16.249154,39.3239978],[16.2495233,39.3242722],[16.2498675,39.3245041],[16.2501111,39.3247566],[16.2501991,39.3248469]]}},{"type":"Feature","properties":{"highway":"cycleway","osm_way_id":895015916},"geometry":{"type":"LineString","coordinates":[[16.2375686,39.3139939],[16.2377818,39.3140619],[16.2380389,39.3142437],[16.2382167,39.3143453],[16.2384514,39.3144434],[16.238911,39.3147278],[16.2391693,39.3148983],[16.2393991,39.3150429],[16.2399676,39.3154038],[16.2402605,39.315675],[16.2405278,39.3160984],[16.2407667,39.3165343],[16.2408369,39.3166281],[16.2408989,39.316702],[16.2415365,39.3177969],[16.2419492,39.3184993],[16.2421525,39.3188382],[16.2426457,39.3196582],[16.2431547,39.3207048],[16.2432085,39.3208081]]}},{"type":"Feature","properties":{"foot":"yes","highway":"cycleway","osm_way_id":933576708},"geometry":{"type":"LineString","coordinates":[[16.2619702,39.2889171],[16.2622394,39.2889468],[16.2624285,39.2889849],[16.2625534,39.2890003],[16.262714,39.288998]]}},{"type":"Feature","properties":{"bicycle":"designated","bridge":"yes","foot":"designated","highway":"cycleway","layer":"1","osm_way_id":1234812811},"geometry":{"type":"LineString","coordinates":[[16.2709047,39.2839514],[16.2709329,39.2839763],[16.2711644,39.2841811]]}},{"type":"Feature","properties":{"highway":"cycleway","surface":"paved","osm_way_id":1234813034},"geometry":{"type":"LineString","coordinates":[[16.2657719,39.2866435],[16.2664622,39.286306],[16.267272,39.2859286],[16.2679849,39.2855955],[16.2679786,39.2855581]]}},{"type":"Feature","properties":{"highway":"cycleway","osm_way_id":1240315434},"geometry":{"type":"LineString","coordinates":[[16.2771445,39.2781527],[16.2769827,39.2782633]]}},{"type":"Feature","properties":{"bicycle":"designated","foot":"designated","highway":"cycleway","oneway":"no","segregated":"yes","osm_way_id":1265833289},"geometry":{"type":"LineString","coordinates":[[16.2501991,39.3248469],[16.2502751,39.3249156],[16.2503553,39.324976],[16.2503974,39.3249259],[16.2504197,39.3249926],[16.2504795,39.325039],[16.2505677,39.3251015],[16.2506097,39.3251629],[16.2506273,39.3251937],[16.2506329,39.3252223],[16.2506189,39.3252976]]}},{"type":"Feature","properties":{"bicycle":"designated","foot":"designated","highway":"cycleway","segregated":"yes","osm_way_id":1265833290},"geometry":{"type":"LineString","coordinates":[[16.250522,39.325696],[16.2504901,39.3259239]]}},{"type":"Feature","properties":{"highway":"cycleway","osm_way_id":1270440686},"geometry":{"type":"LineString","coordinates":[[16.2517262,39.3210201],[16.2529626,39.3212371],[16.2544202,39.3214998],[16.2562626,39.321778],[16.2563128,39.3217869],[16.2563865,39.3218051],[16.2564916,39.3218144],[16.256551,39.3218142],[16.256551,39.3216696],[16.2566852,39.3210591],[16.2567996,39.3206039],[16.2568393,39.3204269],[16.2569316,39.3201252],[16.2570016,39.3200051],[16.2570752,39.3197603],[16.2571324,39.3196817],[16.2572094,39.3196275],[16.2572766,39.3196247]]}},{"type":"Feature","properties":{"highway":"cycleway","osm_way_id":1274459013},"geometry":{"type":"LineString","coordinates":[[16.2573003,39.298664],[16.2573106,39.298721],[16.2573562,39.2987521],[16.2574166,39.2987729],[16.2574851,39.2987598],[16.2583072,39.298627]]}},{"type":"Feature","properties":{"highway":"cycleway","osm_way_id":1274459014},"geometry":{"type":"LineString","coordinates":[[16.2583072,39.298627],[16.2583782,39.2986089],[16.2584096,39.2985907],[16.2584439,39.298556],[16.258466,39.2985264],[16.2584888,39.2985103],[16.258513,39.2984844],[16.258527,39.2984595],[16.2585223,39.2984053],[16.2585452,39.2984031],[16.2585822,39.2983757],[16.2586351,39.298392],[16.2586592,39.2983934],[16.2586778,39.2984613],[16.2586885,39.2984739],[16.2587032,39.2984763],[16.2587307,39.2984775],[16.2588006,39.2984687]]}},{"type":"Feature","properties":{"highway":"cycleway","osm_way_id":1274459015},"geometry":{"type":"LineString","coordinates":[[16.2573003,39.298664],[16.2572096,39.2986828],[16.2571291,39.2987099],[16.2570382,39.2988141],[16.2570031,39.298835],[16.2569454,39.298849],[16.2568345,39.298849],[16.2564941,39.2988132]]}},{"type":"Feature","properties":{"highway":"cycleway","smoothness":"intermediate","surface":"asphalt","width":"1","osm_way_id":1287417152},"geometry":{"type":"LineString","coordinates":[[16.2440211,39.3489192],[16.244033,39.3489365],[16.2439772,39.3507678]]}},{"type":"Feature","properties":{"bridge":"yes","highway":"cycleway","layer":"1","smoothness":"intermediate","surface":"asphalt","width":"1","osm_way_id":1287417154},"geometry":{"type":"LineString","coordinates":[[16.2439772,39.3507678],[16.2439679,39.3510723]]}},{"type":"Feature","properties":{"bicycle":"designated","foot":"designated","highway":"cycleway","surface":"concrete","osm_way_id":1287417155},"geometry":{"type":"LineString","coordinates":[[16.238994,39.3422157],[16.2389255,39.3411234],[16.23892,39.3410618],[16.2389075,39.3403588],[16.2389682,39.3400486],[16.2390026,39.3399992]]}},{"type":"Feature","properties":{"bicycle":"designated","foot":"designated","highway":"cycleway","surface":"concrete","width":"0.8","osm_way_id":1287417156},"geometry":{"type":"LineString","coordinates":[[16.238994,39.3422157],[16.2390583,39.3422139],[16.2391239,39.342214],[16.2391254,39.3424143],[16.2391529,39.3425073],[16.2391772,39.3425745],[16.2392648,39.3426173],[16.2396681,39.3426424],[16.2396649,39.3426963]]}},{"type":"Feature","properties":{"highway":"cycleway","osm_way_id":1287417157},"geometry":{"type":"LineString","coordinates":[[16.2390026,39.3399992],[16.2390253,39.3399603],[16.2393102,39.3393934]]}},{"type":"Feature","properties":{"bridge":"yes","highway":"cycleway","layer":"1","osm_way_id":1287417158},"geometry":{"type":"LineString","coordinates":[[16.2393102,39.3393934],[16.2396356,39.3388522],[16.2397004,39.3387444]]}},{"type":"Feature","properties":{"highway":"cycleway","osm_way_id":1287417159},"geometry":{"type":"LineString","coordinates":[[16.2397004,39.3387444],[16.239731,39.3386646]]}},{"type":"Feature","properties":{"check_date:surface":"2025-11-17","highway":"cycleway","surface":"paved","osm_way_id":1287417161},"geometry":{"type":"LineString","coordinates":[[16.239731,39.3386646],[16.2397205,39.3385932],[16.2394195,39.3384311],[16.2388858,39.3381457],[16.2384745,39.3379124],[16.2382672,39.3378221],[16.2380316,39.3377668],[16.2368944,39.3375757],[16.2359277,39.3373511]]}},{"type":"Feature","properties":{"highway":"cycleway","osm_way_id":1287417162},"geometry":{"type":"LineString","coordinates":[[16.2359277,39.3373511],[16.2359144,39.3373111]]}},{"type":"Feature","properties":{"bridge":"yes","highway":"cycleway","layer":"1","osm_way_id":1287417167},"geometry":{"type":"LineString","coordinates":[[16.2397377,39.3388938],[16.2397585,39.3388642],[16.23978,39.3388321],[16.2398061,39.3387901],[16.2398352,39.3387581]]}},{"type":"Feature","properties":{"highway":"cycleway","oneway":"no","osm_way_id":1287417168},"geometry":{"type":"LineString","coordinates":[[16.2399796,39.3387305],[16.2403553,39.338928],[16.2408396,39.3391737],[16.2410337,39.3392706],[16.241206,39.3393319],[16.2413391,39.3393532],[16.2414722,39.3393579],[16.2417447,39.3393524],[16.2420172,39.3393396],[16.2420039,39.3392644],[16.2419262,39.3388168],[16.241996,39.3388086],[16.2422359,39.3387788],[16.2430491,39.3386776],[16.243975,39.3385811]]}},{"type":"Feature","properties":{"highway":"cycleway","osm_way_id":1308609889},"geometry":{"type":"LineString","coordinates":[[16.2704049,39.2841108],[16.2704507,39.2839958],[16.2707672,39.2837944],[16.2709899,39.2836594],[16.2711642,39.2835536],[16.271293,39.2834601],[16.2714458,39.2833584],[16.2715075,39.283292],[16.2716148,39.2831612],[16.2719474,39.2827916],[16.2720467,39.2826982],[16.2721432,39.2826421],[16.2729237,39.2823785],[16.2739698,39.2816684],[16.2741441,39.2816186],[16.2743534,39.2815522],[16.2745787,39.2814629],[16.2747155,39.2814068],[16.2748522,39.2813383],[16.2749059,39.2812906],[16.2749542,39.2812324],[16.2750185,39.2811536],[16.2750856,39.2810394],[16.2751285,39.2809273],[16.2751419,39.2808027],[16.2751258,39.2806843],[16.2750963,39.280566],[16.2750534,39.2804352],[16.2750212,39.2803252],[16.2750481,39.2802338],[16.2754557,39.2798186],[16.2755523,39.2797604],[16.2756676,39.2797065],[16.275791,39.2796483],[16.2758661,39.2795923],[16.2759412,39.2795051],[16.2760029,39.2793743],[16.2760458,39.2792621],[16.2760405,39.2791687],[16.2759949,39.2789383],[16.2759788,39.2788511],[16.2760083,39.2787348],[16.2760887,39.2785811],[16.2761719,39.2784939],[16.2763087,39.278415],[16.2764669,39.2783403],[16.2766842,39.2782552],[16.2770703,39.278101]]}},{"type":"Feature","properties":{"highway":"cycleway","lit":"yes","osm_way_id":1318872683},"geometry":{"type":"LineString","coordinates":[[16.2507951,39.3241735],[16.2508272,39.3241703],[16.2508776,39.3241477],[16.2509926,39.324093],[16.2511059,39.3240245],[16.2511254,39.3240108],[16.2511397,39.3239261],[16.2512493,39.3230884],[16.2512531,39.3230433],[16.2512696,39.3229301],[16.2513174,39.322583],[16.251351,39.3223414],[16.2513935,39.3220813],[16.2515126,39.3215292],[16.2516028,39.3211358],[16.2517593,39.3204128],[16.2518756,39.3198716],[16.2520721,39.318949],[16.2521712,39.3184555],[16.2522522,39.3180801],[16.2522814,39.3179156],[16.2523326,39.3176578],[16.2524124,39.3173028],[16.2525364,39.3167451],[16.2526169,39.3163477],[16.2527738,39.3156017],[16.25281,39.3154471],[16.2528717,39.315167],[16.2529803,39.3146482],[16.2530139,39.3144801],[16.2530836,39.3141647],[16.2531641,39.3137984],[16.2532325,39.3134539],[16.2533827,39.3127847],[16.2534229,39.312573],[16.2535216,39.3121098],[16.2535932,39.311774],[16.2536509,39.311498]]}},{"type":"Feature","properties":{"highway":"cycleway","osm_way_id":1318872684},"geometry":{"type":"LineString","coordinates":[[16.2507951,39.3241735],[16.2507677,39.3241708],[16.2505965,39.3241536],[16.2505457,39.3243995],[16.2504908,39.3244474],[16.2504307,39.3245705]]}},{"type":"Feature","properties":{"highway":"cycleway","oneway":"yes","osm_way_id":1321666487},"geometry":{"type":"LineString","coordinates":[[16.2484014,39.3368647],[16.2483782,39.3369398],[16.2482957,39.336932],[16.2482305,39.3369562],[16.248108,39.3370703],[16.2480977,39.3371228],[16.2479179,39.3380428],[16.2477575,39.3388634],[16.247772,39.3389475],[16.2478006,39.3389832]]}},{"type":"Feature","properties":{"highway":"cycleway","lit":"yes","oneway":"yes","osm_way_id":1321668668},"geometry":{"type":"LineString","coordinates":[[16.2487938,39.3313233],[16.2488054,39.3312662],[16.2489391,39.3312674],[16.2490365,39.3312173],[16.2490856,39.331174],[16.2491257,39.3310822],[16.2492937,39.3302394],[16.2493356,39.3299149],[16.2493384,39.3297123],[16.2493148,39.329616],[16.2492923,39.3295997],[16.2491161,39.3294722],[16.249008,39.3293578],[16.2489599,39.3292739],[16.2489113,39.3290774],[16.2489015,39.3289485],[16.2489334,39.3288306],[16.2488076,39.3286556],[16.2487637,39.328495],[16.2481985,39.3262394],[16.248262,39.3261666]]}},{"type":"Feature","properties":{"highway":"cycleway","oneway":"yes","osm_way_id":1321668671},"geometry":{"type":"LineString","coordinates":[[16.248836,39.3284811],[16.2489108,39.3284689],[16.2489317,39.3285358],[16.2489925,39.3286079],[16.249116,39.328649],[16.2492566,39.3286152],[16.2494086,39.3285932],[16.2495512,39.3285976],[16.2496804,39.328624],[16.2497982,39.3286784],[16.2498438,39.3287189],[16.2499331,39.3288078],[16.2500395,39.3290899],[16.2500414,39.3292002],[16.2500186,39.329303],[16.2499008,39.3294486],[16.2497678,39.3295235],[16.2496804,39.3295691],[16.2496357,39.3296066],[16.2496157,39.3296406],[16.2495895,39.329718],[16.2495264,39.330323],[16.2493687,39.3311093],[16.2493554,39.331196],[16.2493953,39.3312563],[16.2494542,39.3313371],[16.2495702,39.33139],[16.2495552,39.3314501]]}},{"type":"Feature","properties":{"highway":"cycleway","oneway":"yes","osm_way_id":1321929945},"geometry":{"type":"LineString","coordinates":[[16.2487637,39.328495],[16.248836,39.3284811]]}},{"type":"Feature","properties":{"bicycle":"designated","foot":"designated","highway":"cycleway","segregated":"yes","surface":"concrete","osm_way_id":1322949718},"geometry":{"type":"LineString","coordinates":[[16.2536551,39.3109901],[16.2535906,39.3113341],[16.2535777,39.3114032]]}},{"type":"Feature","properties":{"foot":"yes","highway":"cycleway","osm_way_id":1322949720},"geometry":{"type":"LineString","coordinates":[[16.2536551,39.3109901],[16.2536575,39.3109535],[16.253645,39.3109316],[16.253622,39.3109155]]}},{"type":"Feature","properties":{"highway":"cycleway","surface":"concrete","osm_way_id":1322949722},"geometry":{"type":"LineString","coordinates":[[16.2504901,39.3259239],[16.250463,39.3259443],[16.2504226,39.325957],[16.2503914,39.326086],[16.2503505,39.3262034],[16.2503005,39.3264662],[16.2502672,39.3266583],[16.2501955,39.3267624],[16.2501684,39.3268078],[16.249933,39.3272946],[16.2500507,39.3279661],[16.2500473,39.3279936],[16.2500412,39.3280176],[16.2498438,39.3287189]]}},{"type":"Feature","properties":{"highway":"cycleway","osm_way_id":1322951000},"geometry":{"type":"LineString","coordinates":[[16.2439679,39.3510723],[16.2439614,39.3511381],[16.2439485,39.3513238],[16.2439335,39.3514978],[16.2439117,39.3517669],[16.2438956,39.3519249],[16.24389,39.3521088]]}},{"type":"Feature","properties":{"check_date:surface":"2025-11-09","highway":"cycleway","surface":"paved","width":"1.5","osm_way_id":1322951001},"geometry":{"type":"LineString","coordinates":[[16.24389,39.3521088],[16.2438772,39.3522869],[16.2438767,39.3523016],[16.2438723,39.3524264],[16.2438523,39.3526623],[16.2438436,39.3527607],[16.2438304,39.3529559],[16.2438292,39.3531774],[16.2438216,39.3536321],[16.2437599,39.3541713],[16.243725,39.3547935],[16.2436754,39.3552709]]}},{"type":"Feature","properties":{"highway":"cycleway","osm_way_id":1323839662},"geometry":{"type":"LineString","coordinates":[[16.2504307,39.3245705],[16.2504225,39.3248687],[16.2503974,39.3249259]]}},{"type":"Feature","properties":{"highway":"cycleway","osm_way_id":1323917486},"geometry":{"type":"LineString","coordinates":[[16.2431547,39.3207048],[16.2432032,39.3207048],[16.2433585,39.3207072],[16.2433869,39.3207108],[16.2434188,39.320717],[16.2434825,39.3207347],[16.2435025,39.3207433],[16.2435312,39.3207812],[16.2436562,39.3209465],[16.2437123,39.3210204],[16.2437662,39.3211046],[16.2437596,39.3211284],[16.2437129,39.3211949],[16.2436499,39.3212824],[16.2435952,39.3213025],[16.2435575,39.3213177]]}},{"type":"Feature","properties":{"highway":"cycleway","osm_way_id":1323947612},"geometry":{"type":"LineString","coordinates":[[16.2572766,39.3196247],[16.257331,39.3196245],[16.2575197,39.3196279],[16.2577088,39.3193675],[16.2577438,39.3193314],[16.2578224,39.3192445],[16.2582358,39.3188021],[16.2583582,39.3188595]]}},{"type":"Feature","properties":{"highway":"cycleway","osm_way_id":1323950625},"geometry":{"type":"LineString","coordinates":[[16.256551,39.3218142],[16.2565547,39.3219361]]}},{"type":"Feature","properties":{"bicycle":"designated","foot":"yes","highway":"cycleway","osm_way_id":1326452071},"geometry":{"type":"LineString","coordinates":[[16.2405912,39.3471096],[16.240651,39.3471255],[16.2408536,39.3471486],[16.2410181,39.3471722],[16.2412466,39.3471851],[16.2416016,39.3471898],[16.2416793,39.3471745],[16.2417735,39.347182],[16.2418672,39.3472307]]}},{"type":"Feature","properties":{"highway":"cycleway","osm_way_id":1326452074},"geometry":{"type":"LineString","coordinates":[[16.2425723,39.346626],[16.2426397,39.3466575],[16.2426583,39.346727],[16.2427244,39.3467853],[16.2427612,39.3467949]]}},{"type":"Feature","properties":{"bicycle":"designated","foot":"designated","highway":"cycleway","osm_way_id":1344551465},"geometry":{"type":"LineString","coordinates":[[16.2633431,39.2890489],[16.263333,39.2889628],[16.2636418,39.2886438],[16.2640901,39.28818],[16.2644267,39.2878307],[16.2646301,39.2876256],[16.2646879,39.2875743],[16.2649744,39.287377],[16.265209,39.2872466],[16.2655716,39.2870636],[16.2656514,39.2870181],[16.2662037,39.286748],[16.2666343,39.2865364],[16.2669147,39.2864011],[16.2672174,39.2862675],[16.2676303,39.2860827],[16.2679954,39.285914],[16.2683412,39.2857596],[16.2684444,39.2857125],[16.268798,39.2855461],[16.2694546,39.2852406],[16.2700288,39.2848933],[16.2704255,39.2846453],[16.2709778,39.2842977],[16.2711644,39.2841811]]}},{"type":"Feature","properties":{"foot":"yes","highway":"cycleway","osm_way_id":1344551466},"geometry":{"type":"LineString","coordinates":[[16.2711644,39.2841811],[16.2713498,39.2840652],[16.2718575,39.2837456],[16.2723835,39.28341],[16.272801,39.2831476],[16.2728881,39.2831011],[16.2729751,39.2830594],[16.2730336,39.2830403],[16.2731053,39.2830213],[16.2732016,39.2830016],[16.2732832,39.2829908],[16.273351,39.2829831],[16.2737631,39.2829885],[16.2744247,39.2829944],[16.2745719,39.2829932],[16.2749431,39.2830123],[16.2749756,39.2830774]]}},{"type":"Feature","properties":{"bicycle":"designated","foot":"designated","highway":"cycleway","osm_way_id":1344560669},"geometry":{"type":"LineString","coordinates":[[16.2705913,39.2839971],[16.2706404,39.2840854],[16.2706607,39.2841022],[16.2706935,39.2841292],[16.2709329,39.2839763]]}},{"type":"Feature","properties":{"highway":"cycleway","osm_way_id":1365273912},"geometry":{"type":"LineString","coordinates":[[16.2441268,39.3384723],[16.2447385,39.3386424],[16.2452872,39.3387814],[16.2453333,39.3387933],[16.2456106,39.3388582],[16.2459118,39.3389133],[16.2466555,39.3390153],[16.2469637,39.3390478],[16.2471925,39.3390384]]}},{"type":"Feature","properties":{"bicycle":"designated","foot":"designated","highway":"cycleway","segregated":"yes","surface":"asphalt","osm_way_id":1368816596},"geometry":{"type":"LineString","coordinates":[[16.2460841,39.3154638],[16.2470208,39.3155622],[16.249475,39.3158263]]}},{"type":"Feature","properties":{"highway":"cycleway","osm_way_id":1370344779},"geometry":{"type":"LineString","coordinates":[[16.2374386,39.3139589],[16.2374741,39.3139513],[16.2374907,39.3139495],[16.2375064,39.3139548],[16.2375686,39.3139939]]}},{"type":"Feature","properties":{"bicycle":"designated","foot":"yes","highway":"cycleway","lit":"yes","oneway":"yes","surface":"concrete","osm_way_id":1385579788},"geometry":{"type":"LineString","coordinates":[[16.2473869,39.3392996],[16.2473102,39.3391971],[16.2471923,39.339155],[16.2471892,39.3391071]]}},{"type":"Feature","properties":{"foot":"yes","highway":"cycleway","lit":"yes","oneway":"no","osm_way_id":1385579789},"geometry":{"type":"LineString","coordinates":[[16.2471892,39.3391071],[16.2471925,39.3390384]]}},{"type":"Feature","properties":{"foot":"yes","highway":"cycleway","lit":"yes","oneway":"yes","osm_way_id":1385579790},"geometry":{"type":"LineString","coordinates":[[16.2471925,39.3390384],[16.2473052,39.339028],[16.2473955,39.3389644],[16.2474582,39.338912]]}},{"type":"Feature","properties":{"foot":"yes","highway":"cycleway","oneway":"yes","osm_way_id":1385579791},"geometry":{"type":"LineString","coordinates":[[16.2478006,39.3389832],[16.2478301,39.33902],[16.2478715,39.3390874],[16.2478825,39.3391258],[16.2479606,39.339169],[16.2479351,39.33923]]}},{"type":"Feature","properties":{"foot":"yes","highway":"cycleway","lit":"yes","oneway":"no","surface":"concrete","osm_way_id":1385579792},"geometry":{"type":"LineString","coordinates":[[16.2479351,39.33923],[16.2479092,39.3392833],[16.2478153,39.3392774],[16.2477257,39.3393114],[16.2476853,39.339386]]}},{"type":"Feature","properties":{"bicycle":"designated","crossing":"uncontrolled","crossing:markings":"yes","cycleway":"crossing","foot":"designated","highway":"cycleway","osm_way_id":1390025283},"geometry":{"type":"LineString","coordinates":[[16.243975,39.3385811],[16.2439739,39.3385433],[16.2439721,39.3385061],[16.2439713,39.3384673],[16.2440389,39.3384687],[16.2441268,39.3384723]]}},{"type":"Feature","properties":{"bicycle":"designated","foot":"designated","highway":"cycleway","surface":"paved","osm_way_id":1408914785},"geometry":{"type":"LineString","coordinates":[[16.2400602,39.343414],[16.2399503,39.3438904],[16.2399104,39.3442045],[16.2398422,39.344842],[16.2398021,39.3450844],[16.2397789,39.3451422],[16.2397659,39.345203],[16.2397744,39.3452686],[16.2397871,39.3453196]]}},{"type":"Feature","properties":{"highway":"cycleway","osm_way_id":1409490859},"geometry":{"type":"LineString","coordinates":[[16.2418672,39.3472307],[16.2419492,39.347287],[16.2419878,39.3473119],[16.2419948,39.3471555],[16.2420241,39.3470817],[16.2420624,39.347014],[16.242153,39.3469227],[16.2422072,39.3468857],[16.2423602,39.3468121],[16.2424227,39.3467769],[16.2424931,39.3467261],[16.2425225,39.3466952],[16.2425723,39.346626]]}},{"type":"Feature","properties":{"highway":"cycleway","osm_way_id":1409757397},"geometry":{"type":"LineString","coordinates":[[16.2396649,39.3426963],[16.2396611,39.3427549],[16.2397173,39.3429398],[16.2396655,39.3430199]]}},{"type":"Feature","properties":{"crossing":"uncontrolled","crossing:markings":"yes","cycleway":"crossing","highway":"cycleway","osm_way_id":1496761596},"geometry":{"type":"LineString","coordinates":[[16.2397377,39.3388938],[16.2396356,39.3388522]]}},{"type":"Feature","properties":{"highway":"cycleway","osm_way_id":1496761597},"geometry":{"type":"LineString","coordinates":[[16.2398352,39.3387581],[16.2398642,39.3387331],[16.2399232,39.3387164],[16.2399796,39.3387305]]}}]}