{"type":"FeatureCollection","name":"osm-pedestrian","properties":{"source":"OpenStreetMap via Overpass API","license":"ODbL 1.0","osm_timestamp":"2026-05-03T19:24:45Z"},"features":[{"type":"Feature","properties":{"area":"yes","highway":"pedestrian","lit":"yes","name":"Piazza Santo Sergio","surface":"paving_stones","osm_way_id":30504135},"geometry":{"type":"LineString","coordinates":[[16.2428364,39.3540595],[16.2432826,39.3541314],[16.2433689,39.3541337],[16.2434382,39.3541171],[16.2434952,39.3540944],[16.2435476,39.3540468],[16.2435845,39.353986],[16.2436903,39.3540812],[16.2436496,39.3544112],[16.2436053,39.3544408],[16.2434637,39.3543519],[16.2433838,39.3543265],[16.2432491,39.3543127],[16.2430737,39.3543128],[16.2428078,39.3542868],[16.2428364,39.3540595]]}},{"type":"Feature","properties":{"area":"yes","highway":"pedestrian","surface":"paved","osm_way_id":30692862},"geometry":{"type":"LineString","coordinates":[[16.24274,39.3470255],[16.2427806,39.3469447],[16.2427832,39.3468237],[16.2427612,39.3467949],[16.2426649,39.3467169],[16.242658,39.3464154],[16.2426416,39.3464246],[16.2425472,39.3464776],[16.2425596,39.3464915],[16.2425916,39.3465372],[16.2425723,39.346626],[16.2425746,39.3466509],[16.242507,39.3467344],[16.2424667,39.3467658],[16.2423695,39.3468229],[16.2422777,39.3468687],[16.2421516,39.3469415],[16.2420747,39.3470206],[16.2420393,39.3470862],[16.2420117,39.3471597],[16.2420146,39.3472165],[16.2420153,39.3472873],[16.2420672,39.3474169],[16.2421901,39.3475373],[16.2423163,39.3476101],[16.2423595,39.3476301],[16.2424649,39.3476413],[16.2425926,39.3476457],[16.2427465,39.3476381],[16.2428475,39.3476331],[16.242955,39.3476348],[16.2428988,39.347449],[16.2428505,39.3473283],[16.2428674,39.3473122],[16.2428824,39.3473204],[16.2429009,39.3472843],[16.2429131,39.3472428],[16.2429175,39.3471985],[16.2429165,39.3471457],[16.242893,39.3471462],[16.2428845,39.3471245],[16.2428717,39.3471024],[16.2428503,39.3470763],[16.242805,39.347043],[16.2427832,39.3470615],[16.2428153,39.3471129],[16.2428256,39.3471589],[16.2428217,39.3472036],[16.242813,39.34726],[16.2427558,39.3472635],[16.242675,39.3473305],[16.2427593,39.3473754],[16.2428063,39.3474024],[16.2428217,39.3474254],[16.2428251,39.3474453],[16.2428192,39.3474583],[16.2427963,39.3474762],[16.2426125,39.3475055],[16.2425313,39.3474787],[16.242473,39.3474841],[16.2424549,39.3475044],[16.2424218,39.3474981],[16.2424217,39.3474715],[16.2424089,39.3474695],[16.2423745,39.3474442],[16.2423602,39.3474265],[16.2423463,39.3473948],[16.2423477,39.3473551],[16.2423774,39.3473105],[16.2423482,39.3472604],[16.2423189,39.3472089],[16.2423194,39.347181],[16.2422831,39.3471802],[16.2422893,39.3471191],[16.2423425,39.347037],[16.2424248,39.3469819],[16.24249,39.3469677],[16.2425648,39.3469633],[16.2425802,39.3469318],[16.2426104,39.346864],[16.2426495,39.3468633],[16.2426954,39.3468689],[16.2426444,39.3469554],[16.2426685,39.3469873],[16.24274,39.3470255]]}},{"type":"Feature","properties":{"bicycle":"yes","bridge":"yes","highway":"pedestrian","layer":"1","lit":"yes","maxspeed":"30","name":"Ponte Pietro Bucci","smoothness":"excellent","surface":"asphalt","width":"5","osm_way_id":30948624},"geometry":{"type":"LineString","coordinates":[[16.2269439,39.3562278],[16.2268719,39.3566946]]}},{"type":"Feature","properties":{"bicycle":"yes","bridge":"yes","highway":"pedestrian","layer":"1","lit":"yes","name":"Ponte Pietro Bucci","surface":"metal_grid","osm_way_id":30948626},"geometry":{"type":"LineString","coordinates":[[16.2260379,39.3624016],[16.2257714,39.3641375]]}},{"type":"Feature","properties":{"highway":"pedestrian","lit":"yes","name":"Ponte Pietro Bucci","surface":"asphalt","osm_way_id":30948631},"geometry":{"type":"LineString","coordinates":[[16.2261407,39.3617317],[16.2260909,39.3620559],[16.2260379,39.3624016]]}},{"type":"Feature","properties":{"highway":"pedestrian","name":"Ponte Pietro Bucci","surface":"asphalt","osm_way_id":30948635},"geometry":{"type":"LineString","coordinates":[[16.2253733,39.3669175],[16.2253581,39.3669998],[16.2253495,39.3670501]]}},{"type":"Feature","properties":{"area":"yes","highway":"pedestrian","lit":"yes","surface":"paved","osm_way_id":31143723},"geometry":{"type":"LineString","coordinates":[[16.2409494,39.3450726],[16.2410126,39.3452195],[16.2410299,39.34523],[16.2410616,39.3452492],[16.2410893,39.3452608],[16.2411206,39.3452695],[16.2411533,39.3452713],[16.2411824,39.3452647],[16.2412064,39.3452541],[16.2412316,39.3452383],[16.2412732,39.3452503],[16.2412882,39.3452471],[16.2413076,39.3452436],[16.2412004,39.345003],[16.2411872,39.3450067],[16.2409494,39.3450726]]}},{"type":"Feature","properties":{"bus":"no","highway":"pedestrian","surface":"concrete","osm_way_id":43875952},"geometry":{"type":"LineString","coordinates":[[16.2247895,39.3560913],[16.2247914,39.3560837],[16.2247914,39.3560722],[16.2247895,39.3560646],[16.2247876,39.3560532],[16.2247876,39.3560455],[16.2247876,39.3560341],[16.2247857,39.3560265],[16.2247876,39.356015],[16.2247895,39.3560036],[16.2247952,39.3559921],[16.224799,39.3559845],[16.2248047,39.3559769],[16.2248085,39.3559654],[16.2248162,39.3559578],[16.22482,39.3559464],[16.2248257,39.3559387],[16.2248314,39.3559311],[16.2248391,39.3559235],[16.2248448,39.355912],[16.2248524,39.3559044],[16.22486,39.3558968],[16.2248658,39.3558891],[16.2248715,39.3558815],[16.2248791,39.3558739],[16.2248867,39.3558663],[16.2248982,39.3558586],[16.2249096,39.3558548],[16.2249273,39.3558493]]}},{"type":"Feature","properties":{"highway":"pedestrian","name":"Ponte P. Bucci","smoothness":"good","surface":"asphalt","osm_way_id":45849802},"geometry":{"type":"LineString","coordinates":[[16.2269717,39.3560679],[16.2269439,39.3562278]]}},{"type":"Feature","properties":{"highway":"pedestrian","layer":"1","name":"Ponte Pietro Bucci","surface":"paving_stones","osm_way_id":46274634},"geometry":{"type":"LineString","coordinates":[[16.2253495,39.3670501],[16.225348,39.3670625],[16.2252895,39.3674608],[16.2251964,39.3680138],[16.2251515,39.3683244]]}},{"type":"Feature","properties":{"highway":"pedestrian","lanes":"2","lit":"yes","name":"Corso Giuseppe Mazzini","oneway":"no","surface":"paving_stones","osm_way_id":47043785},"geometry":{"type":"LineString","coordinates":[[16.253008,39.3009052],[16.2528149,39.3014001],[16.2526247,39.3016521],[16.2524392,39.3018638],[16.2524185,39.3018874]]}},{"type":"Feature","properties":{"bicycle":"yes","bridge":"yes","highway":"pedestrian","layer":"1","lit":"yes","name":"Ponte Pietro Bucci","surface":"metal_grid","osm_way_id":120516815},"geometry":{"type":"LineString","coordinates":[[16.2256549,39.364884],[16.225636,39.3650361],[16.2254833,39.3660586],[16.225408,39.3665961]]}},{"type":"Feature","properties":{"highway":"pedestrian","name":"Piazza Duomo","place":"square","osm_way_id":120661952},"geometry":{"type":"LineString","coordinates":[[16.2600592,39.2892085],[16.2600441,39.2891515],[16.2599946,39.2890476],[16.2598864,39.2889033],[16.2598455,39.2889408],[16.2598095,39.2889664],[16.259737,39.2890187],[16.2596625,39.2890712],[16.259614,39.2891154],[16.2595831,39.2891645],[16.2596233,39.2892017],[16.259681,39.289212],[16.2597369,39.2892137],[16.2599292,39.2892002],[16.2599327,39.2892226],[16.2600592,39.2892085]]}},{"type":"Feature","properties":{"access":"yes","bicycle":"yes","cycleway":"no","foot":"yes","highway":"pedestrian","lanes":"2","lit":"yes","motor_vehicle":"no","name":"Corso Giuseppe Mazzini","oneway":"no","surface":"paving_stones","osm_way_id":120667285},"geometry":{"type":"LineString","coordinates":[[16.2560069,39.2936026],[16.2559854,39.2936476],[16.2555904,39.2944703],[16.2555408,39.2945756],[16.2555131,39.2946312],[16.2555093,39.2946387],[16.2551536,39.2953537],[16.2550082,39.2956468],[16.2548574,39.2959507],[16.2548333,39.2959997],[16.2543856,39.2970185],[16.2542594,39.2973042],[16.2542059,39.2974655],[16.2541543,39.2976154],[16.254038,39.2979691],[16.2539244,39.298263],[16.2538059,39.2986239],[16.2534913,39.2995938],[16.2533356,39.3000485],[16.2531616,39.3004724],[16.2531465,39.3005147],[16.253008,39.3009052]]}},{"type":"Feature","properties":{"access":"yes","alt_name":"Piazza 11 Settembre","area":"yes","highway":"pedestrian","lit":"yes","motor_vehicle":"no","name":"Piazza Undici Settembre","surface":"paving_stones","osm_way_id":127284913},"geometry":{"type":"LineString","coordinates":[[16.2537864,39.2975618],[16.2538078,39.2975013],[16.2540821,39.2975739],[16.2541543,39.2976154],[16.2542024,39.297647],[16.2542213,39.2976515],[16.2542004,39.2977112],[16.2540797,39.2980744],[16.2540545,39.2981547],[16.2540446,39.2981527],[16.2540116,39.2982475],[16.2540032,39.2982703],[16.2539244,39.298263],[16.2538485,39.2982564],[16.2535462,39.2981855],[16.2535715,39.2981173],[16.2535933,39.2980628],[16.2537864,39.2975618]]}},{"type":"Feature","properties":{"highway":"pedestrian","lit":"yes","name":"Via Calabria","surface":"paving_stones","osm_way_id":128268947},"geometry":{"type":"LineString","coordinates":[[16.2528033,39.2979246],[16.2535715,39.2981173]]}},{"type":"Feature","properties":{"access":"no","bicycle":"yes","foot":"yes","highway":"pedestrian","lit":"yes","motor_vehicle":"permit","name":"Via Ettore Loizzo","old_name":"Via Neghelli","path":"pedestrian street","surface":"paving_stones","osm_way_id":128268950},"geometry":{"type":"LineString","coordinates":[[16.2546601,39.2999978],[16.2535073,39.2997655]]}},{"type":"Feature","properties":{"access":"no","bicycle":"yes","foot":"yes","highway":"pedestrian","lit":"yes","motor_vehicle":"permit","name":"Via Adige","surface":"asphalt","osm_way_id":128268951},"geometry":{"type":"LineString","coordinates":[[16.2544162,39.2966723],[16.2534052,39.2964294]]}},{"type":"Feature","properties":{"access":"no","bicycle":"yes","foot":"yes","highway":"pedestrian","lit":"yes","motor_vehicle":"permit","name":"Via Arturo Scola","old_name":"Via Francesco Capoderose","path":"pedestrian street","surface":"paving_stones","osm_way_id":128268953},"geometry":{"type":"LineString","coordinates":[[16.2545513,39.3002817],[16.2534326,39.3000009]]}},{"type":"Feature","properties":{"access":"no","bicycle":"yes","foot":"yes","highway":"pedestrian","lit":"yes","motor_vehicle":"permit","name":"Via Tagliamento","surface":"paving_stones","osm_way_id":128268957},"geometry":{"type":"LineString","coordinates":[[16.2537864,39.2975618],[16.2530133,39.2973638]]}},{"type":"Feature","properties":{"access":"no","bicycle":"yes","foot":"yes","highway":"pedestrian","lit":"yes","motor_vehicle":"permit","name":"Via Idria","surface":"asphalt","osm_way_id":128268958},"geometry":{"type":"LineString","coordinates":[[16.254598,39.2961761],[16.2536134,39.2959273]]}},{"type":"Feature","properties":{"highway":"pedestrian","lit":"yes","name":"Via Molinella","surface":"paved","osm_way_id":128268961},"geometry":{"type":"LineString","coordinates":[[16.2531465,39.3005147],[16.2533017,39.3005434],[16.2536256,39.3006032],[16.2536748,39.3006123]]}},{"type":"Feature","properties":{"highway":"pedestrian","lit":"yes","motor_vehicle":"permit","name":"Via Arabia","surface":"paving_stones","osm_way_id":128268963},"geometry":{"type":"LineString","coordinates":[[16.2525612,39.2986004],[16.2526408,39.2986009],[16.2537094,39.2986156],[16.2538059,39.2986239]]}},{"type":"Feature","properties":{"access":"no","bicycle":"yes","foot":"yes","highway":"pedestrian","lit":"yes","motor_vehicle":"permit","name":"Via Brenta","surface":"asphalt","osm_way_id":128268966},"geometry":{"type":"LineString","coordinates":[[16.2542831,39.2969933],[16.253761,39.2968566],[16.2533004,39.2966879]]}},{"type":"Feature","properties":{"highway":"pedestrian","lit":"yes","name":"Via Vincenzo Biscardi","surface":"asphalt","osm_way_id":128268970},"geometry":{"type":"LineString","coordinates":[[16.2527312,39.2993813],[16.2534264,39.2995675]]}},{"type":"Feature","properties":{"area":"yes","highway":"pedestrian","name":"Piazza Suor Maria Teresa De Vincenti","osm_way_id":169420981},"geometry":{"type":"LineString","coordinates":[[16.2443268,39.3323036],[16.2454403,39.3323417],[16.2454469,39.3321611],[16.2451185,39.3321501],[16.2451366,39.3315623],[16.2448311,39.3317664],[16.2441764,39.3320285],[16.2441767,39.3322355],[16.2442132,39.3322678],[16.2442651,39.3322881],[16.2443268,39.3323036]]}},{"type":"Feature","properties":{"area":"yes","highway":"pedestrian","surface":"sett","osm_way_id":169422133},"geometry":{"type":"LineString","coordinates":[[16.2453399,39.3259936],[16.2459852,39.3259406],[16.2458879,39.3250339],[16.245705,39.3251867],[16.245316,39.3255118],[16.245288,39.3255352],[16.2453399,39.3259936]]}},{"type":"Feature","properties":{"area":"yes","highway":"pedestrian","lit":"yes","name":"Piazza Loreto","surface":"paving_stones","osm_way_id":169469859},"geometry":{"type":"LineString","coordinates":[[16.2501259,39.3053375],[16.2501276,39.3053864],[16.2501292,39.3054298],[16.2506826,39.3055508],[16.2506908,39.3055346],[16.2507129,39.3054912],[16.2508118,39.3055111],[16.2508141,39.3054954],[16.2510083,39.3050556],[16.2510133,39.3050372],[16.2503283,39.3048611],[16.2502201,39.3051158],[16.2501259,39.3053375]]}},{"type":"Feature","properties":{"area":"yes","highway":"pedestrian","lit":"yes","name":"Piazza Paolo Cappello","surface":"paved","osm_way_id":169589831},"geometry":{"type":"LineString","coordinates":[[16.2494048,39.2967137],[16.2494035,39.2966177],[16.2494552,39.2966197],[16.2494526,39.2964936],[16.2495211,39.2964336],[16.2496116,39.2964276],[16.2496432,39.2964263],[16.2496291,39.2963092],[16.249564,39.2961941],[16.2494789,39.2961117],[16.2490722,39.2959655],[16.248978,39.2964242],[16.249229,39.2966317],[16.2491651,39.2966853],[16.2491544,39.2967138],[16.2491532,39.2967631],[16.2492031,39.2968347],[16.2493065,39.2967557],[16.2493738,39.2968167],[16.2494267,39.2968167],[16.2494267,39.2967687],[16.2495431,39.2967697],[16.2495687,39.2967707],[16.2495677,39.2966903],[16.2495276,39.2966917],[16.2495276,39.2967097],[16.2494048,39.2967137]]}},{"type":"Feature","properties":{"access":"yes","area":"yes","bicycle":"yes","cycleway":"no","foot":"yes","highway":"pedestrian","lanes":"2","lit":"yes","motor_vehicle":"no","name":"Corso Giuseppe Mazzini","oneway":"no","surface":"paving_stones","osm_way_id":169611572},"geometry":{"type":"LineString","coordinates":[[16.2550314,39.2959112],[16.2551301,39.2957027],[16.2551414,39.2956784],[16.255153,39.2956549],[16.2551482,39.2956535],[16.255248,39.2954558],[16.2552838,39.2953933],[16.255313,39.2953424],[16.2554115,39.2951627],[16.2555655,39.2952076],[16.2555897,39.2951632],[16.2554292,39.2951099],[16.2556639,39.2946821],[16.2555093,39.2946387],[16.255369,39.2945994],[16.2552525,39.2948407],[16.2551342,39.2948065],[16.2550816,39.2949151],[16.255205,39.2949501],[16.2550604,39.2952549],[16.255025,39.2953156],[16.2549828,39.2953881],[16.2548861,39.2955943],[16.2548792,39.2956114],[16.2548745,39.2956258],[16.2547701,39.2958569],[16.254752,39.2958515],[16.2547213,39.2959136],[16.254699,39.2959591],[16.2548333,39.2959997],[16.2549662,39.2960421],[16.2549938,39.2959879],[16.2550314,39.2959112]]}},{"type":"Feature","properties":{"access":"yes","area":"yes","bicycle":"yes","cycleway":"no","foot":"yes","highway":"pedestrian","lanes":"2","lit":"yes","motor_vehicle":"no","name":"Corso Giuseppe Mazzini","oneway":"no","surface":"paving_stones","osm_way_id":169611573},"geometry":{"type":"LineString","coordinates":[[16.2538485,39.2982564],[16.2537523,39.298527],[16.2537094,39.2986156],[16.2536655,39.2987051],[16.253682,39.2987326],[16.2535914,39.2990287],[16.253581,39.2990257],[16.2535681,39.2990744],[16.2535107,39.2992873],[16.2534989,39.2993334],[16.2534366,39.2995377],[16.2534264,39.2995675],[16.2534155,39.2995914],[16.2532787,39.3000169],[16.2531616,39.3004724],[16.2530327,39.3004462],[16.2530187,39.3005261],[16.2529108,39.3008265],[16.2529132,39.3008984],[16.252917,39.3009655],[16.2527849,39.3012896],[16.2526082,39.3015452],[16.2524314,39.3017909],[16.2523806,39.3018251],[16.2524392,39.3018638],[16.2525257,39.301921],[16.2526394,39.3017764],[16.2527256,39.3016741],[16.2527995,39.3015805],[16.2529169,39.3013618],[16.2530093,39.3011472],[16.2531185,39.3009301],[16.2531316,39.3009178],[16.2531467,39.3009036],[16.2531913,39.3007966],[16.2532165,39.3007198],[16.2532522,39.3005911],[16.2532833,39.3005974],[16.2533017,39.3005434],[16.2533145,39.3005061],[16.2532628,39.3004951],[16.2533374,39.3002842],[16.2534254,39.3000361],[16.2534326,39.3000009],[16.2534417,39.2999647],[16.2535027,39.2997855],[16.2535073,39.2997655],[16.2535115,39.2997502],[16.2535578,39.2996154],[16.2535704,39.2995893],[16.2535834,39.2995576],[16.2536625,39.2993227],[16.2536721,39.2992981],[16.2536817,39.2992743],[16.253734,39.2991192],[16.2537201,39.2991172],[16.2538198,39.2988376],[16.2538277,39.2988226],[16.253834,39.2988062],[16.2539121,39.2985701],[16.2539154,39.2985436],[16.253918,39.2985261],[16.2539961,39.29829],[16.2540032,39.2982703],[16.2539244,39.298263],[16.2538485,39.2982564]]}},{"type":"Feature","properties":{"access":"yes","area":"yes","bicycle":"yes","cycleway":"no","foot":"yes","highway":"pedestrian","lanes":"2","lit":"yes","motor_vehicle":"no","name":"Corso Giuseppe Mazzini","oneway":"no","surface":"paving_stones","osm_way_id":169611574},"geometry":{"type":"LineString","coordinates":[[16.2540821,39.2975739],[16.2541543,39.2976154],[16.2542024,39.297647],[16.2542322,39.2975719],[16.2542612,39.2974946],[16.2542769,39.2974673],[16.2542942,39.2974316],[16.2543318,39.2973302],[16.2544721,39.2970286],[16.2544789,39.2970161],[16.2546166,39.296732],[16.2546339,39.2966863],[16.2546499,39.2966479],[16.2549662,39.2960421],[16.2548333,39.2959997],[16.254699,39.2959591],[16.2546058,39.2961586],[16.254598,39.2961761],[16.254591,39.2961916],[16.2545985,39.2961935],[16.2546153,39.2961977],[16.2544245,39.2966491],[16.2544162,39.2966723],[16.2544071,39.2966965],[16.2542886,39.296973],[16.2542831,39.2969933],[16.2542721,39.2970416],[16.2541762,39.2972774],[16.2541569,39.2973239],[16.2541843,39.2973312],[16.2540821,39.2975739]]}},{"type":"Feature","properties":{"access":"yes","area":"yes","bicycle":"yes","foot":"yes","highway":"pedestrian","lit":"yes","motor_vehicle":"no","name":"Piazza John Fitzgerald Kennedy","surface":"paving_stones","osm_way_id":169613444},"geometry":{"type":"LineString","coordinates":[[16.2531616,39.3004724],[16.2532787,39.3000169],[16.2530453,39.2999899],[16.2530454,39.3000296],[16.253037,39.3000482],[16.253027,39.3000663],[16.2529987,39.300097],[16.2529641,39.3001271],[16.2530454,39.3003736],[16.2530327,39.3004462],[16.2531616,39.3004724]]}},{"type":"Feature","properties":{"area":"yes","highway":"pedestrian","osm_way_id":170642908},"geometry":{"type":"LineString","coordinates":[[16.2372466,39.3452464],[16.2372207,39.3450096],[16.2375236,39.3449898],[16.2375495,39.3452266],[16.2372466,39.3452464]]}},{"type":"Feature","properties":{"area":"yes","highway":"pedestrian","landcover":"trees","lit":"yes","surface":"paved","osm_way_id":171167048},"geometry":{"type":"LineString","coordinates":[[16.2498443,39.2978216],[16.2498252,39.2974597],[16.2498013,39.2970057],[16.2498023,39.2969119],[16.249807,39.2964759],[16.2498293,39.2964487],[16.2498425,39.2964426],[16.2498436,39.2964729],[16.2498393,39.2964729],[16.2498344,39.2964729],[16.2498422,39.296995],[16.2498424,39.2970114],[16.2498593,39.297015],[16.2499001,39.2970328],[16.2499408,39.2970632],[16.2499613,39.2971031],[16.2499791,39.2971458],[16.249978,39.2971864],[16.2499614,39.2972265],[16.2499441,39.2972593],[16.2498926,39.2972985],[16.2498748,39.2973069],[16.2498745,39.2973247],[16.2498647,39.2977946],[16.2498691,39.2977949],[16.2498742,39.2977953],[16.2498726,39.2978337],[16.2498541,39.2978314],[16.2498443,39.2978216]]}},{"type":"Feature","properties":{"area":"yes","highway":"pedestrian","lit":"yes","surface":"paving_stones","osm_way_id":173534571},"geometry":{"type":"LineString","coordinates":[[16.2565877,39.2971437],[16.2564422,39.297208],[16.2564214,39.2972135],[16.2564068,39.2972174],[16.2564266,39.297116],[16.2564527,39.2968698],[16.2564696,39.2967185],[16.256481,39.2965606],[16.2564484,39.2964408],[16.2572007,39.2966306],[16.2568482,39.2971978],[16.2568323,39.29719],[16.2567821,39.2971665],[16.2567008,39.2971421],[16.2566337,39.2971354],[16.2565877,39.2971437]]}},{"type":"Feature","properties":{"highway":"pedestrian","osm_way_id":184299824},"geometry":{"type":"LineString","coordinates":[[16.2942318,39.2844982],[16.2943048,39.2845671],[16.2943231,39.2846124],[16.2943176,39.2846789],[16.2943177,39.2847452],[16.294323,39.2847722],[16.294455,39.2847955],[16.2945516,39.2848495],[16.2946952,39.2850092]]}},{"type":"Feature","properties":{"area":"yes","highway":"pedestrian","name":"Piazza della Libert\u00e0","surface":"paving_stones","osm_way_id":260256949},"geometry":{"type":"LineString","coordinates":[[16.2415965,39.3294725],[16.2418431,39.3294604],[16.2418538,39.3294728],[16.2419692,39.3294687],[16.2419772,39.3295029],[16.2421082,39.3294963],[16.2420814,39.3291837],[16.2419476,39.3291904],[16.2419226,39.3292176],[16.2418732,39.3292714],[16.2418546,39.3292784],[16.241836,39.329278],[16.24182,39.3292716],[16.2418131,39.3292597],[16.2418127,39.3292436],[16.2418596,39.3291942],[16.241563,39.3292104],[16.2415965,39.3294725]]}},{"type":"Feature","properties":{"bicycle":"yes","bridge":"yes","crossing":"uncontrolled","footway":"crossing","highway":"footway","layer":"1","name":"Ponte pedonale","surface":"wood","osm_way_id":270893023},"geometry":{"type":"LineString","coordinates":[[16.2442967,39.3405917],[16.2442601,39.3409727]]}},{"type":"Feature","properties":{"area":"yes","highway":"pedestrian","surface":"paving_stones","osm_way_id":327419002},"geometry":{"type":"LineString","coordinates":[[16.2423305,39.3445432],[16.2424831,39.3445452],[16.2424909,39.3445639],[16.2424477,39.3445937],[16.2424523,39.3449215],[16.2424839,39.3449585],[16.2424792,39.344981],[16.2424547,39.3449847],[16.2424558,39.3451201],[16.2424815,39.3451409],[16.2424851,39.3452221],[16.2424582,39.3452411],[16.2424603,39.345395],[16.2424804,39.3454198],[16.2424804,39.3454758],[16.2424453,39.3455192],[16.2424327,39.3463005],[16.2424662,39.3463379],[16.2424702,39.3463929],[16.2424394,39.3464374],[16.2423951,39.3464478],[16.2423415,39.3464478],[16.2423455,39.3462694],[16.2423181,39.346273],[16.2423447,39.3453931],[16.2421872,39.3453999],[16.2421907,39.3449606],[16.2423281,39.3449616],[16.2423305,39.3445432]]}},{"type":"Feature","properties":{"area":"yes","highway":"pedestrian","surface":"paving_stones","osm_way_id":327419013},"geometry":{"type":"LineString","coordinates":[[16.2426773,39.3444234],[16.2426041,39.3444375],[16.242606,39.3444705],[16.2426503,39.3444958],[16.2426522,39.3448886],[16.2426122,39.3449279],[16.2426126,39.3449623],[16.2426367,39.3449714],[16.2426733,39.3449743],[16.2426725,39.3450318],[16.2426123,39.3450447],[16.2426106,39.3451221],[16.2426306,39.3451376],[16.2426306,39.3451912],[16.2426014,39.345227],[16.2426027,39.345413],[16.2426029,39.3454366],[16.2426461,39.3454819],[16.2426382,39.3460214],[16.2426087,39.3460463],[16.2426315,39.3461552],[16.2426538,39.3461877],[16.2426959,39.3462195],[16.2427616,39.3462537],[16.242889,39.3462713],[16.2429869,39.3462744],[16.2431451,39.3462744],[16.2432189,39.3462599],[16.2432927,39.3462309],[16.2433678,39.3462091],[16.2434328,39.3461896],[16.2435156,39.3461959],[16.2435925,39.3461277],[16.2434354,39.3459943],[16.2432212,39.3461563],[16.243155,39.3461051],[16.2431381,39.3461134],[16.2431134,39.3461206],[16.243078,39.3461206],[16.2430456,39.3461206],[16.2430148,39.3461086],[16.2429994,39.3460943],[16.2429794,39.3460753],[16.2429748,39.3460562],[16.2429671,39.346036],[16.2428608,39.3460372],[16.242875,39.3453779],[16.2430197,39.3453743],[16.2430244,39.3449915],[16.2429497,39.3449734],[16.2429188,39.3449703],[16.2428947,39.3449662],[16.2428719,39.3449568],[16.2428585,39.3449423],[16.2428776,39.3446747],[16.2426731,39.3446658],[16.2426773,39.3444234]]}},{"type":"Feature","properties":{"area":"yes","highway":"pedestrian","name":"Piazza Santa Lucia","place":"square","osm_way_id":330204633},"geometry":{"type":"LineString","coordinates":[[16.2583622,39.2905915],[16.2582979,39.2905478],[16.2582604,39.2905495],[16.2582125,39.2904899],[16.258449,39.2903913],[16.2585301,39.2904577],[16.258431,39.2905367],[16.2583622,39.2905915]]}},{"type":"Feature","properties":{"area":"yes","highway":"pedestrian","lit":"yes","name":"Piazza dei Bruzi","surface":"paving_stones","osm_way_id":332881292},"geometry":{"type":"LineString","coordinates":[[16.255722,39.2934239],[16.2556983,39.2934807],[16.2566993,39.2937245],[16.2567555,39.2935806],[16.2565325,39.2935299],[16.2566199,39.2933103],[16.2565327,39.2932899],[16.2564865,39.2932792],[16.2560685,39.2931762],[16.255944,39.2934787],[16.255722,39.2934239]]}},{"type":"Feature","properties":{"area":"yes","highway":"pedestrian","lit":"yes","name":"Piazza Eugenio Cenisio","surface":"paving_stones","osm_way_id":332881293},"geometry":{"type":"LineString","coordinates":[[16.2560256,39.2926861],[16.2560316,39.2926476],[16.2560766,39.2925598],[16.2560934,39.2925612],[16.2564857,39.2926687],[16.2565168,39.2926423],[16.2566057,39.2926671],[16.2566439,39.2925495],[16.2566388,39.2924455],[16.2566378,39.292432],[16.2571893,39.2924869],[16.2572043,39.2925064],[16.2572055,39.2925319],[16.2571509,39.2926598],[16.2569011,39.2925989],[16.2567725,39.2929077],[16.2566939,39.2928903],[16.2566506,39.2928802],[16.256235,39.2927778],[16.25625,39.2927414],[16.2560256,39.2926861]]}},{"type":"Feature","properties":{"highway":"pedestrian","lit":"yes","name":"Via Severino Marco Aurelio","surface":"paving_stones","osm_way_id":332881294},"geometry":{"type":"LineString","coordinates":[[16.2565327,39.2932899],[16.2566939,39.2928903],[16.2567212,39.2928232]]}},{"type":"Feature","properties":{"highway":"pedestrian","lit":"yes","surface":"paving_stones","osm_way_id":332881295},"geometry":{"type":"LineString","coordinates":[[16.2567212,39.2928232],[16.2560316,39.2926476],[16.255951,39.2926276]]}},{"type":"Feature","properties":{"bridge":"yes","highway":"pedestrian","layer":"1","osm_way_id":375114774},"geometry":{"type":"LineString","coordinates":[[16.2606859,39.2901229],[16.2603871,39.2900107]]}},{"type":"Feature","properties":{"area":"yes","highway":"pedestrian","osm_way_id":386547553},"geometry":{"type":"LineString","coordinates":[[16.2859572,39.3515323],[16.2859989,39.3515902],[16.2860928,39.351632],[16.2861705,39.3516413],[16.2862551,39.3516273],[16.2863258,39.3515914],[16.2863838,39.3515114],[16.2863595,39.3514987],[16.2863421,39.3514639],[16.2862563,39.3514593],[16.2862563,39.3513816],[16.286065,39.3513932],[16.2860662,39.351465],[16.2859688,39.3514616],[16.2859653,39.3514987],[16.2859433,39.3515021],[16.2859572,39.3515323]]}},{"type":"Feature","properties":{"area":"yes","highway":"pedestrian","osm_way_id":393826526},"geometry":{"type":"LineString","coordinates":[[16.2176837,39.3630934],[16.2177736,39.3631268],[16.2178495,39.3631945],[16.2179545,39.3632468],[16.2179931,39.3632612],[16.2179919,39.3632757],[16.2179335,39.3632919],[16.217686,39.3632883],[16.2176837,39.3632342],[16.2176837,39.3630934]]}},{"type":"Feature","properties":{"crossing":"zebra","footway":"crossing","highway":"footway","osm_way_id":393855903},"geometry":{"type":"LineString","coordinates":[[16.2511853,39.3239297],[16.2512334,39.323938]]}},{"type":"Feature","properties":{"crossing":"traffic_island","footway":"crossing","highway":"footway","surface":"paved","osm_way_id":393855909},"geometry":{"type":"LineString","coordinates":[[16.2509902,39.3230703],[16.2511147,39.3230793],[16.2512493,39.3230884],[16.2512921,39.3230913],[16.2513366,39.3230954]]}},{"type":"Feature","properties":{"crossing":"zebra","footway":"crossing","highway":"footway","osm_way_id":393855919},"geometry":{"type":"LineString","coordinates":[[16.2514699,39.3220938],[16.251433,39.322083],[16.2513935,39.3220813],[16.251378,39.3220807],[16.2513017,39.3220583],[16.2512545,39.3220386],[16.251209,39.3220324],[16.2511783,39.32203]]}},{"type":"Feature","properties":{"bicycle":"yes","crossing":"zebra","foot":"designated","footway":"crossing","highway":"footway","name":"Viale Giacomo Mancini","segregated":"no","surface":"concrete","osm_way_id":393864034},"geometry":{"type":"LineString","coordinates":[[16.251437,39.3214988],[16.2514321,39.3215193],[16.2514258,39.3215478]]}},{"type":"Feature","properties":{"crossing":"zebra","footway":"crossing","highway":"footway","osm_way_id":393864041},"geometry":{"type":"LineString","coordinates":[[16.2513192,39.3210989],[16.2514036,39.3211079]]}},{"type":"Feature","properties":{"crossing":"zebra","footway":"crossing","highway":"footway","osm_way_id":393864045},"geometry":{"type":"LineString","coordinates":[[16.2516415,39.3211414],[16.251694,39.3211451]]}},{"type":"Feature","properties":{"bicycle":"yes","crossing":"zebra","foot":"designated","footway":"crossing","highway":"footway","name":"Viale Giacomo Mancini","segregated":"no","surface":"concrete","osm_way_id":393864051},"geometry":{"type":"LineString","coordinates":[[16.2516761,39.3203956],[16.2516691,39.32042],[16.251651,39.3204651]]}},{"type":"Feature","properties":{"crossing":"zebra","footway":"crossing","highway":"footway","osm_way_id":393864057},"geometry":{"type":"LineString","coordinates":[[16.2515867,39.3198379],[16.2516756,39.3198483]]}},{"type":"Feature","properties":{"crossing":"zebra","footway":"crossing","highway":"footway","osm_way_id":393864059},"geometry":{"type":"LineString","coordinates":[[16.2519153,39.3198772],[16.2519721,39.3198872]]}},{"type":"Feature","properties":{"crossing":"zebra","footway":"crossing","highway":"footway","osm_way_id":393864066},"geometry":{"type":"LineString","coordinates":[[16.251846,39.3190679],[16.2518031,39.3190614]]}},{"type":"Feature","properties":{"crossing":"zebra","footway":"crossing","highway":"footway","osm_way_id":393864070},"geometry":{"type":"LineString","coordinates":[[16.2521093,39.3189545],[16.2521661,39.3189648]]}},{"type":"Feature","properties":{"crossing":"zebra","footway":"crossing","highway":"footway","osm_way_id":393864077},"geometry":{"type":"LineString","coordinates":[[16.2520618,39.3180143],[16.2520226,39.3179992]]}},{"type":"Feature","properties":{"crossing":"zebra","footway":"crossing","highway":"footway","osm_way_id":393864079},"geometry":{"type":"LineString","coordinates":[[16.252293,39.3180926],[16.2523394,39.318116]]}},{"type":"Feature","properties":{"crossing":"zebra","footway":"crossing","highway":"footway","osm_way_id":393871958},"geometry":{"type":"LineString","coordinates":[[16.2517262,39.3210201],[16.2517392,39.3209756],[16.2517491,39.3209404]]}},{"type":"Feature","properties":{"crossing":"zebra","footway":"crossing","highway":"footway","osm_way_id":393871960},"geometry":{"type":"LineString","coordinates":[[16.2521344,39.3191078],[16.2521465,39.319052],[16.2521565,39.3190057]]}},{"type":"Feature","properties":{"crossing":"zebra","footway":"crossing","highway":"footway","osm_way_id":393871962},"geometry":{"type":"LineString","coordinates":[[16.2524437,39.3180637],[16.2524618,39.317999],[16.2524811,39.3179471]]}},{"type":"Feature","properties":{"highway":"pedestrian","name":"Via \"Ninni\" Antonio Cassar\u00e0","osm_way_id":407535604},"geometry":{"type":"LineString","coordinates":[[16.2497796,39.3213342],[16.2504092,39.3213772]]}},{"type":"Feature","properties":{"highway":"pedestrian","name":"Piazza Loreto","surface":"paving_stones","osm_way_id":414009961},"geometry":{"type":"LineString","coordinates":[[16.2507705,39.3055576],[16.2506908,39.3055346],[16.2501276,39.3053864],[16.2501122,39.3053823],[16.2500617,39.3053569]]}},{"type":"Feature","properties":{"highway":"pedestrian","osm_way_id":414011629},"geometry":{"type":"LineString","coordinates":[[16.2527009,39.2978998],[16.2528033,39.2979246]]}},{"type":"Feature","properties":{"highway":"pedestrian","osm_way_id":414011631},"geometry":{"type":"LineString","coordinates":[[16.2523194,39.2978049],[16.2521882,39.2977493]]}},{"type":"Feature","properties":{"area":"yes","highway":"pedestrian","osm_way_id":480830566},"geometry":{"type":"LineString","coordinates":[[16.2578769,39.3059526],[16.2579809,39.3059624],[16.2584549,39.3060071],[16.2584801,39.305861],[16.2579379,39.3057765],[16.2578769,39.3059526]]}},{"type":"Feature","properties":{"highway":"pedestrian","lit":"yes","name":"Via L. M. Greco","oneway":"no","surface":"asphalt","osm_way_id":547716806},"geometry":{"type":"LineString","coordinates":[[16.252547,39.3024434],[16.2523632,39.3024345]]}},{"type":"Feature","properties":{"area":"yes","highway":"pedestrian","lit":"yes","name":"Piazza Carlo Bilotti","surface":"paving_stones","osm_way_id":547717394},"geometry":{"type":"LineString","coordinates":[[16.2520644,39.3027909],[16.2522921,39.3027974],[16.2522864,39.3028732],[16.2520622,39.3028644],[16.2517957,39.3028537],[16.2518019,39.3027874],[16.2518035,39.3027657],[16.2518315,39.3025274],[16.2517678,39.3025229],[16.2518086,39.3021129],[16.2519065,39.3021175],[16.2519309,39.3020813],[16.2519605,39.3020456],[16.2520161,39.3019929],[16.2520696,39.3019537],[16.2521052,39.3019377],[16.2521435,39.3019278],[16.2523609,39.3019259],[16.2523032,39.3026025],[16.2522784,39.3026386],[16.2522485,39.3026741],[16.2521924,39.3027266],[16.2521385,39.3027655],[16.2521028,39.3027813],[16.2520644,39.3027909]]}},{"type":"Feature","properties":{"highway":"pedestrian","lit":"yes","name":"Piazza Carlo Bilotti","surface":"paving_stones","osm_way_id":547718245},"geometry":{"type":"LineString","coordinates":[[16.2518178,39.3018781],[16.2518551,39.3018783],[16.2519171,39.3018793],[16.2524185,39.3018874],[16.2523632,39.3024345],[16.2523295,39.3027992],[16.2523251,39.302847]]}},{"type":"Feature","properties":{"area":"yes","highway":"pedestrian","osm_way_id":744344772},"geometry":{"type":"LineString","coordinates":[[16.1552157,39.4088349],[16.1551272,39.4088828],[16.1551166,39.4089156],[16.1551254,39.4089429],[16.1551484,39.4089648],[16.1551909,39.4089703],[16.1552281,39.4089607],[16.1552953,39.4089087],[16.1552534,39.4088699],[16.1552157,39.4088349]]}},{"type":"Feature","properties":{"area":"yes","highway":"pedestrian","osm_way_id":744344783},"geometry":{"type":"LineString","coordinates":[[16.1573102,39.406911],[16.1571628,39.4071615],[16.1571041,39.4072602],[16.1569885,39.4073332],[16.1570513,39.4073893],[16.1571292,39.4073401],[16.1571565,39.4073635],[16.1571905,39.4073927],[16.1574034,39.4071665],[16.1574318,39.407105],[16.1574371,39.4070694],[16.1574229,39.4070257],[16.1573663,39.4069614],[16.1573102,39.406911]]}},{"type":"Feature","properties":{"area":"yes","highway":"pedestrian","name":"Piazza Pietro Guido","osm_way_id":744351864},"geometry":{"type":"LineString","coordinates":[[16.1561964,39.4033947],[16.1558867,39.4034733],[16.1558297,39.403559],[16.1557866,39.4035709],[16.1556233,39.4033399],[16.1560269,39.4032185],[16.156067,39.4032209],[16.1560978,39.4032328],[16.1561964,39.4033947]]}},{"type":"Feature","properties":{"area":"yes","highway":"pedestrian","name":"piazzetta","osm_way_id":774543898},"geometry":{"type":"LineString","coordinates":[[16.2582759,39.2892769],[16.2582641,39.2892754],[16.2582279,39.289259],[16.2582017,39.2892461],[16.2582306,39.2892408],[16.2582464,39.2892295],[16.2582643,39.2892122],[16.2582689,39.2892034],[16.2582545,39.2891961],[16.2582612,39.2891864],[16.2582707,39.2891728],[16.2583204,39.2891325],[16.2583596,39.2891691],[16.2583693,39.2891793],[16.2583789,39.2891893],[16.2583375,39.2892168],[16.2582973,39.289247],[16.2582759,39.2892769]]}},{"type":"Feature","properties":{"highway":"pedestrian","osm_way_id":774543900},"geometry":{"type":"LineString","coordinates":[[16.2581587,39.2895032],[16.2581404,39.289495],[16.2581495,39.289473],[16.2581629,39.2894443],[16.2581878,39.2894111],[16.258223,39.2893717],[16.2582318,39.2893541],[16.2582494,39.2893206],[16.2582641,39.2892754]]}},{"type":"Feature","properties":{"highway":"pedestrian","incline":"down","name":"Via del Seggio","osm_way_id":775095641},"geometry":{"type":"LineString","coordinates":[[16.2585636,39.2892574],[16.2585878,39.2892755],[16.258607,39.28928],[16.258699,39.2892367],[16.258727,39.2892278],[16.2587623,39.2892274],[16.2588511,39.289174],[16.2589186,39.2891184],[16.2589655,39.2890882],[16.2590104,39.2890665],[16.2590595,39.2890511],[16.2591087,39.2890373],[16.2591743,39.2889849],[16.2592377,39.2889231],[16.2592787,39.2889062],[16.2593234,39.2888689],[16.2593691,39.2888388],[16.2593883,39.2888337],[16.2594477,39.2888426],[16.2595933,39.2888289],[16.2596499,39.2888352],[16.2597007,39.2888574],[16.2597948,39.2889184]]}},{"type":"Feature","properties":{"crossing":"marked","crossing:markings":"yes","footway":"crossing","highway":"footway","osm_way_id":932396875},"geometry":{"type":"LineString","coordinates":[[16.2519601,39.2926594],[16.2519825,39.2926158]]}},{"type":"Feature","properties":{"area":"yes","highway":"pedestrian","lit":"yes","name":"Piazza Evelina Cundari","surface":"paving_stones","osm_way_id":952647917},"geometry":{"type":"LineString","coordinates":[[16.2551419,39.3063294],[16.2555346,39.306393],[16.2556193,39.3060802],[16.2552266,39.3060165],[16.2551419,39.3063294]]}},{"type":"Feature","properties":{"bicycle":"yes","crossing":"traffic_signals","crossing:markings":"surface","footway":"crossing","highway":"footway","surface":"sett","traffic_calming":"table","osm_way_id":1160532916},"geometry":{"type":"LineString","coordinates":[[16.2444447,39.3464384],[16.2444464,39.3463858],[16.2444498,39.3463148]]}},{"type":"Feature","properties":{"bicycle":"yes","crossing":"pedestrian_signals","crossing:markings":"surface","footway":"crossing","highway":"footway","surface":"sett","traffic_calming":"table","osm_way_id":1160532917},"geometry":{"type":"LineString","coordinates":[[16.2458226,39.3465174],[16.2458246,39.3464699],[16.245821,39.3464261],[16.2458194,39.3463646],[16.2458194,39.3463297]]}},{"type":"Feature","properties":{"bicycle":"yes","crossing":"pedestrian_signals","crossing:markings":"surface","footway":"crossing","highway":"footway","surface":"sett","traffic_calming":"table","osm_way_id":1160532918},"geometry":{"type":"LineString","coordinates":[[16.2461065,39.3461206],[16.24615,39.3461267],[16.2462038,39.3461332],[16.2463075,39.3461449],[16.2464065,39.3461574],[16.2464481,39.3461615]]}},{"type":"Feature","properties":{"bicycle":"yes","crossing":"pedestrian_signals","crossing:markings":"surface","footway":"crossing","highway":"footway","surface":"sett","traffic_calming":"table","osm_way_id":1160532919},"geometry":{"type":"LineString","coordinates":[[16.2464139,39.3446609],[16.2464424,39.3446642],[16.2464995,39.3446696],[16.2465944,39.3446775],[16.2466857,39.3446827]]}},{"type":"Feature","properties":{"bicycle":"yes","crossing":"pedestrian_signals","crossing:markings":"yes","footway":"crossing","highway":"footway","surface":"sett","tactile_paving":"no","traffic_calming":"table","osm_way_id":1160532920},"geometry":{"type":"LineString","coordinates":[[16.2464935,39.3442349],[16.2465207,39.3442361],[16.2465708,39.3442413],[16.2466665,39.3442516],[16.2467519,39.3442595],[16.2467786,39.3442627]]}},{"type":"Feature","properties":{"bicycle":"yes","bridge":"yes","highway":"pedestrian","layer":"1","lit":"yes","maxspeed":"30","name":"Ponte Pietro Bucci","surface":"metal_grid","width":"5","osm_way_id":1169935563},"geometry":{"type":"LineString","coordinates":[[16.2268719,39.3566946],[16.2266669,39.3580478]]}},{"type":"Feature","properties":{"bicycle":"yes","bridge":"yes","highway":"pedestrian","layer":"1","lit":"yes","maxspeed":"30","name":"Ponte Pietro Bucci","surface":"asphalt","width":"5","osm_way_id":1169935836},"geometry":{"type":"LineString","coordinates":[[16.2266669,39.3580478],[16.2265347,39.358914]]}},{"type":"Feature","properties":{"bicycle":"yes","bridge":"yes","highway":"pedestrian","layer":"1","lit":"yes","maxspeed":"30","name":"Ponte Pietro Bucci","surface":"metal_grid","width":"5","osm_way_id":1169936253},"geometry":{"type":"LineString","coordinates":[[16.2265347,39.358914],[16.2263908,39.3598055],[16.2262734,39.3607154],[16.2262223,39.3612]]}},{"type":"Feature","properties":{"bicycle":"yes","bridge":"yes","highway":"pedestrian","layer":"1","lit":"yes","name":"Ponte Pietro Bucci","surface":"asphalt","osm_way_id":1169936737},"geometry":{"type":"LineString","coordinates":[[16.2257053,39.3645685],[16.2256549,39.364884]]}},{"type":"Feature","properties":{"bicycle":"yes","bridge":"yes","highway":"pedestrian","layer":"1","lit":"yes","name":"Ponte Pietro Bucci","surface":"asphalt","osm_way_id":1169937064},"geometry":{"type":"LineString","coordinates":[[16.225408,39.3665961],[16.2253733,39.3669175]]}},{"type":"Feature","properties":{"bicycle":"yes","bridge":"yes","highway":"pedestrian","layer":"1","lit":"yes","name":"Ponte Pietro Bucci","surface":"asphalt","osm_way_id":1170355789},"geometry":{"type":"LineString","coordinates":[[16.2257714,39.3641375],[16.2257529,39.3642582]]}},{"type":"Feature","properties":{"crossing":"uncontrolled","crossing:markings":"yes","footway":"crossing","highway":"footway","surface":"asphalt","osm_way_id":1174294881},"geometry":{"type":"LineString","coordinates":[[16.2279623,39.3563092],[16.2279978,39.3563044],[16.2280788,39.3563036]]}},{"type":"Feature","properties":{"crossing":"uncontrolled","crossing:markings":"yes","footway":"crossing","highway":"footway","surface":"asphalt","osm_way_id":1174294883},"geometry":{"type":"LineString","coordinates":[[16.2274194,39.3562571],[16.2274152,39.3561808],[16.2274471,39.3561538],[16.2274929,39.3561142],[16.2275176,39.3560942]]}},{"type":"Feature","properties":{"crossing":"uncontrolled","crossing:markings":"yes","footway":"crossing","highway":"footway","surface":"asphalt","osm_way_id":1174294884},"geometry":{"type":"LineString","coordinates":[[16.2277246,39.3560058],[16.2277623,39.3559598],[16.2277891,39.3559212]]}},{"type":"Feature","properties":{"highway":"pedestrian","surface":"asphalt","osm_way_id":1174294886},"geometry":{"type":"LineString","coordinates":[[16.2270257,39.3558781],[16.2270443,39.3557875]]}},{"type":"Feature","properties":{"crossing":"uncontrolled","crossing:markings":"yes","footway":"crossing","highway":"footway","surface":"paved","osm_way_id":1174294891},"geometry":{"type":"LineString","coordinates":[[16.2256472,39.364363],[16.225642,39.3644017],[16.2256346,39.3644568]]}},{"type":"Feature","properties":{"crossing":"uncontrolled","crossing:markings":"yes","footway":"crossing","highway":"footway","surface":"paved","osm_way_id":1174294893},"geometry":{"type":"LineString","coordinates":[[16.2258124,39.3643681],[16.225805,39.3644231],[16.2258018,39.3644469]]}},{"type":"Feature","properties":{"crossing":"uncontrolled","crossing:markings":"yes","footway":"crossing","highway":"footway","surface":"asphalt","osm_way_id":1174418194},"geometry":{"type":"LineString","coordinates":[[16.2277386,39.3596463],[16.2277597,39.3596387],[16.2278225,39.3596098]]}},{"type":"Feature","properties":{"crossing":"uncontrolled","crossing:markings":"yes","footway":"crossing","highway":"footway","surface":"asphalt","osm_way_id":1174418195},"geometry":{"type":"LineString","coordinates":[[16.2275185,39.3591699],[16.2275656,39.3591712],[16.2276232,39.3591732]]}},{"type":"Feature","properties":{"crossing":"uncontrolled","crossing:markings":"yes","footway":"crossing","highway":"footway","osm_way_id":1174418196},"geometry":{"type":"LineString","coordinates":[[16.2274565,39.3577932],[16.2275178,39.3578156],[16.2275741,39.3578362]]}},{"type":"Feature","properties":{"crossing":"uncontrolled","crossing:markings":"yes","footway":"crossing","highway":"footway","surface":"asphalt","osm_way_id":1174418197},"geometry":{"type":"LineString","coordinates":[[16.2278822,39.3569307],[16.2279351,39.3569378],[16.2279776,39.3569402]]}},{"type":"Feature","properties":{"crossing":"uncontrolled","crossing:markings":"yes","footway":"crossing","highway":"footway","surface":"asphalt","osm_way_id":1174418198},"geometry":{"type":"LineString","coordinates":[[16.2279203,39.3598955],[16.2279528,39.3598814],[16.228014,39.3598551]]}},{"type":"Feature","properties":{"crossing":"uncontrolled","crossing:markings":"yes","footway":"crossing","highway":"footway","surface":"asphalt","osm_way_id":1174418201},"geometry":{"type":"LineString","coordinates":[[16.2278092,39.3603898],[16.2278634,39.3604227],[16.2279102,39.3604511]]}},{"type":"Feature","properties":{"crossing":"uncontrolled","crossing:markings":"yes","footway":"crossing","highway":"footway","surface":"asphalt","osm_way_id":1174418203},"geometry":{"type":"LineString","coordinates":[[16.2272014,39.3612495],[16.2272591,39.3612506],[16.2273297,39.36125]]}},{"type":"Feature","properties":{"crossing":"uncontrolled","crossing:markings":"yes","footway":"crossing","highway":"footway","surface":"asphalt","osm_way_id":1174418204},"geometry":{"type":"LineString","coordinates":[[16.2273965,39.3619065],[16.2274449,39.3618992],[16.2275049,39.3618922]]}},{"type":"Feature","properties":{"crossing":"uncontrolled","crossing:markings":"yes","footway":"crossing","highway":"footway","surface":"asphalt","osm_way_id":1174418206},"geometry":{"type":"LineString","coordinates":[[16.2275791,39.3627026],[16.227622,39.3627106],[16.2276944,39.3627203]]}},{"type":"Feature","properties":{"crossing":"uncontrolled","crossing:markings":"yes","footway":"crossing","highway":"footway","surface":"asphalt","osm_way_id":1174418207},"geometry":{"type":"LineString","coordinates":[[16.2275144,39.3622363],[16.2275554,39.3622284],[16.2276179,39.3622164]]}},{"type":"Feature","properties":{"highway":"pedestrian","surface":"asphalt","osm_way_id":1182515501},"geometry":{"type":"LineString","coordinates":[[16.2271149,39.3559771],[16.2271055,39.3560086],[16.2270833,39.356036],[16.2270514,39.3560561],[16.2270128,39.3560671],[16.2269717,39.3560679],[16.2269325,39.3560585],[16.2268989,39.3560393],[16.2268755,39.3560138],[16.2268639,39.3559833],[16.2268655,39.3559516],[16.2268804,39.3559219],[16.2269073,39.3558971],[16.2269432,39.3558805],[16.2269842,39.355874],[16.2270257,39.3558781],[16.2270631,39.3558925],[16.2270924,39.3559156],[16.2271103,39.3559449],[16.2271149,39.3559771]]}},{"type":"Feature","properties":{"footway":"crossing","highway":"footway","osm_way_id":1234812814},"geometry":{"type":"LineString","coordinates":[[16.262714,39.288998],[16.2628097,39.2889083]]}},{"type":"Feature","properties":{"highway":"pedestrian","osm_way_id":1255254758},"geometry":{"type":"LineString","coordinates":[[16.3121156,39.3340916],[16.3122207,39.3340846],[16.312295,39.3340873]]}},{"type":"Feature","properties":{"highway":"pedestrian","name":"Corso Vittorio Emanuele","osm_way_id":1257002562},"geometry":{"type":"LineString","coordinates":[[16.3114123,39.3188223],[16.3114242,39.3188439],[16.3115154,39.3190244],[16.3116361,39.319124],[16.3116964,39.3191774],[16.311765,39.3192383],[16.3118213,39.3193067],[16.3118776,39.3193607],[16.3119749,39.3194795],[16.311985,39.3195002],[16.3120014,39.3195339],[16.3120943,39.3197252],[16.3121574,39.3198015],[16.3121889,39.3199209]]}},{"type":"Feature","properties":{"highway":"pedestrian","name":"Via Eliseo","osm_way_id":1260548778},"geometry":{"type":"LineString","coordinates":[[16.3121574,39.3198015],[16.3123525,39.3196372],[16.3123641,39.3195902],[16.3124108,39.319565],[16.3123981,39.3195438],[16.3123455,39.3194566],[16.3123174,39.319303]]}},{"type":"Feature","properties":{"highway":"pedestrian","osm_way_id":1260548779},"geometry":{"type":"LineString","coordinates":[[16.3123174,39.319303],[16.3122474,39.3191965],[16.3122268,39.3191886],[16.3121236,39.3191495],[16.3119841,39.3191266],[16.3118808,39.3191307],[16.3116964,39.3191774]]}},{"type":"Feature","properties":{"highway":"pedestrian","name":"Via Centrale","osm_way_id":1260548780},"geometry":{"type":"LineString","coordinates":[[16.311985,39.3195002],[16.3120653,39.3194475],[16.3121423,39.3193392],[16.3123174,39.319303],[16.3124249,39.3192524],[16.3125066,39.3192163]]}},{"type":"Feature","properties":{"highway":"pedestrian","osm_way_id":1260548781},"geometry":{"type":"LineString","coordinates":[[16.3125066,39.3192163],[16.3124132,39.3190899],[16.3122268,39.3191886]]}},{"type":"Feature","properties":{"highway":"pedestrian","osm_way_id":1260548782},"geometry":{"type":"LineString","coordinates":[[16.3124132,39.3190899],[16.3124716,39.3190411],[16.3124716,39.3189815],[16.3126344,39.3189365]]}},{"type":"Feature","properties":{"highway":"pedestrian","osm_way_id":1260548783},"geometry":{"type":"LineString","coordinates":[[16.3123981,39.3195438],[16.3125057,39.3195341]]}},{"type":"Feature","properties":{"area":"yes","highway":"pedestrian","surface":"paved","osm_way_id":1263037391},"geometry":{"type":"LineString","coordinates":[[16.2571465,39.2930546],[16.2568867,39.2936283],[16.2568867,39.2936448],[16.256892,39.2936626],[16.2569017,39.2936667],[16.2569212,39.2936715],[16.2569389,39.293666],[16.2569584,39.2936509],[16.257053,39.2934332],[16.2571477,39.2933291],[16.2572689,39.2932421],[16.2572273,39.2931969],[16.2572509,39.2931825],[16.2572778,39.2931654],[16.2573191,39.2932137],[16.2573716,39.2931792],[16.2574167,39.2931299],[16.2571465,39.2930546]]}},{"type":"Feature","properties":{"area":"yes","highway":"pedestrian","lit":"yes","name":"Piazza Tommaso Campanella","surface":"paved","osm_way_id":1263077291},"geometry":{"type":"LineString","coordinates":[[16.2573327,39.2926547],[16.2575075,39.2919749],[16.2575154,39.291953],[16.2575296,39.2919345],[16.257546,39.2919225],[16.2575694,39.291916],[16.2576809,39.291927],[16.2577359,39.2919297],[16.2576613,39.2921957],[16.2577679,39.2922121],[16.2577284,39.292331],[16.25772,39.2923378],[16.2575996,39.2923148],[16.2574875,39.2926979],[16.2573327,39.2926547]]}},{"type":"Feature","properties":{"area":"yes","highway":"pedestrian","surface":"paving_stones","osm_way_id":1263890794},"geometry":{"type":"LineString","coordinates":[[16.2541861,39.3086682],[16.2540391,39.3086272],[16.254002,39.3086169],[16.2539829,39.3086116],[16.2539395,39.3088281],[16.2538213,39.309498],[16.2536838,39.310171],[16.2535593,39.3107925],[16.2535419,39.3108521],[16.2535267,39.3108826],[16.2535008,39.3109002],[16.2535068,39.3109131],[16.253529,39.3109102],[16.253622,39.3109155],[16.2536252,39.3109157],[16.2536349,39.310904],[16.2536377,39.3108962],[16.2536363,39.3108846],[16.2536292,39.3108748],[16.2536104,39.3108669],[16.2535744,39.3108546],[16.2535759,39.3108364],[16.2536524,39.3104689],[16.2537138,39.3101723],[16.2537568,39.3101779],[16.2538187,39.3098822],[16.2538337,39.3098706],[16.2538466,39.3098646],[16.2538671,39.3098654],[16.2538772,39.3098739],[16.2539072,39.3099115],[16.2539563,39.3096867],[16.2540108,39.309437],[16.2540126,39.3094242],[16.2540321,39.309328],[16.2539139,39.3093154],[16.2539205,39.309282],[16.2540068,39.3088446],[16.2540353,39.3088288],[16.254079,39.308839],[16.2541372,39.3089009],[16.2541436,39.308867],[16.254147,39.3088491],[16.2541861,39.3086682]]}},{"type":"Feature","properties":{"area":"yes","highway":"pedestrian","osm_way_id":1265220871},"geometry":{"type":"LineString","coordinates":[[16.2447772,39.3145575],[16.2446224,39.3145169],[16.2448514,39.3140273],[16.2450256,39.3136742],[16.2452906,39.3131646],[16.2453355,39.3131888],[16.2453833,39.3132038],[16.2454488,39.3132189],[16.2453653,39.3133568],[16.2452591,39.3135874],[16.245194,39.3137174],[16.2454516,39.3138024],[16.2453694,39.3138458],[16.2453094,39.3139073],[16.245278,39.3139804],[16.2452785,39.3140574],[16.2453108,39.3141303],[16.2453715,39.3141913],[16.2450107,39.3140867],[16.2448918,39.3143206],[16.2447772,39.3145575]]}},{"type":"Feature","properties":{"crossing":"uncontrolled","crossing:markings":"zebra","footway":"crossing","highway":"footway","surface":"asphalt","osm_way_id":1265843682},"geometry":{"type":"LineString","coordinates":[[16.2579732,39.2992044],[16.2579726,39.2991638],[16.2579742,39.299018],[16.2579753,39.2988675],[16.2579732,39.2988473]]}},{"type":"Feature","properties":{"footway":"crossing","highway":"footway","surface":"asphalt","osm_way_id":1265843683},"geometry":{"type":"LineString","coordinates":[[16.2575659,39.2993308],[16.2577103,39.2993315],[16.2578203,39.2993324]]}},{"type":"Feature","properties":{"area":"yes","highway":"pedestrian","lit":"yes","surface":"paving_stones","osm_way_id":1266486052},"geometry":{"type":"LineString","coordinates":[[16.256371,39.2962241],[16.2563917,39.2961245],[16.2564081,39.2960459],[16.2564246,39.2959627],[16.2564377,39.2958966],[16.2564488,39.2958422],[16.2564346,39.2958407],[16.2564997,39.2955145],[16.2565123,39.2954514],[16.2565306,39.2953598],[16.256607,39.2949769],[16.2566105,39.2949586],[16.2566231,39.2948925],[16.2566808,39.2948988],[16.2566929,39.2948562],[16.2570047,39.2948915],[16.2574895,39.2949465],[16.257531,39.2949579],[16.2575632,39.294986],[16.2575753,39.2950098],[16.2575699,39.2950576],[16.2575036,39.29503],[16.257384,39.2950096],[16.2573438,39.2951883],[16.2572684,39.295174],[16.2571829,39.295174],[16.2571259,39.2951638],[16.2570934,39.295119],[16.2569895,39.2950763],[16.2568877,39.2950702],[16.2567554,39.2950885],[16.2566903,39.295119],[16.2566475,39.2951944],[16.2566271,39.2952677],[16.256617,39.2953735],[16.2566007,39.2954998],[16.2565498,39.2956769],[16.2566068,39.2957054],[16.2565803,39.2958458],[16.2565213,39.2958418],[16.2564928,39.295913],[16.2564907,39.2959965],[16.2565213,39.2960555],[16.25656,39.2961085],[16.2566129,39.2961472],[16.2566638,39.2961553],[16.2566923,39.2961492],[16.2567534,39.2961757],[16.2568409,39.2962204],[16.2568371,39.2962427],[16.2571059,39.296265],[16.2570964,39.2963126],[16.2570854,39.2963738],[16.2569076,39.2963508],[16.2568225,39.2963399],[16.2567272,39.2963276],[16.256602,39.2963114],[16.2566147,39.2962538],[16.2565613,39.2962473],[16.2564912,39.2962388],[16.256371,39.2962241]]}},{"type":"Feature","properties":{"footway":"crossing","highway":"footway","osm_way_id":1270433707},"geometry":{"type":"LineString","coordinates":[[16.2502201,39.3051158],[16.2501722,39.3050926],[16.2500489,39.305048],[16.2499594,39.3050257],[16.2498828,39.3050073]]}},{"type":"Feature","properties":{"area":"yes","highway":"pedestrian","surface":"concrete","osm_way_id":1270433708},"geometry":{"type":"LineString","coordinates":[[16.2570193,39.2945963],[16.2570084,39.294645],[16.2574104,39.2946866],[16.2574294,39.2944437],[16.2573059,39.2944288],[16.2573468,39.2942249],[16.2571068,39.2941913],[16.2570979,39.294234],[16.2570193,39.2945963]]}},{"type":"Feature","properties":{"footway":"crossing","highway":"footway","osm_way_id":1270433709},"geometry":{"type":"LineString","coordinates":[[16.2570047,39.2948915],[16.2570212,39.2948213],[16.2570366,39.2947482]]}},{"type":"Feature","properties":{"footway":"crossing","highway":"footway","osm_way_id":1270433710},"geometry":{"type":"LineString","coordinates":[[16.2569076,39.2947323],[16.2569167,39.2946791],[16.2569244,39.29463]]}},{"type":"Feature","properties":{"area":"yes","highway":"pedestrian","lit":"yes","surface":"paving_stones","osm_way_id":1270443839},"geometry":{"type":"LineString","coordinates":[[16.2562363,39.2948235],[16.2560638,39.2956133],[16.2561938,39.2956481],[16.2562453,39.2954169],[16.2563554,39.2949231],[16.2563555,39.2949165],[16.2563561,39.2948855],[16.2563461,39.2948686],[16.2563293,39.2948474],[16.2562938,39.2948334],[16.2562363,39.2948235]]}},{"type":"Feature","properties":{"access":"no","area":"yes","highway":"pedestrian","surface":"paved","osm_way_id":1271194827},"geometry":{"type":"LineString","coordinates":[[16.2583946,39.3050468],[16.2589439,39.3051023],[16.2589257,39.3052036],[16.2588633,39.3051969],[16.2588445,39.3053018],[16.2587334,39.3052927],[16.2587198,39.3052955],[16.2587059,39.305301],[16.2586951,39.3053098],[16.2586858,39.3053237],[16.2586773,39.3053372],[16.2586731,39.3053577],[16.2586326,39.3053502],[16.2584511,39.3053301],[16.2584264,39.3054631],[16.2583638,39.3054561],[16.2583043,39.3054483],[16.2583393,39.3052452],[16.2582085,39.3052335],[16.2582182,39.3051729],[16.2583722,39.3051876],[16.2583946,39.3050468]]}},{"type":"Feature","properties":{"area":"yes","highway":"pedestrian","lit":"yes","name":"Piazza Francesco Petrolo","surface":"paved","osm_way_id":1273405398},"geometry":{"type":"LineString","coordinates":[[16.2566173,39.3000445],[16.25666,39.299778],[16.25718,39.2997596],[16.257213,39.2997587],[16.2572282,39.3001121],[16.2566173,39.3000445]]}},{"type":"Feature","properties":{"area":"yes","highway":"pedestrian","lit":"yes","name":"Piazza Giacomo Matteotti","surface":"paving_stones","osm_way_id":1274484275},"geometry":{"type":"LineString","coordinates":[[16.2419178,39.3331888],[16.2419145,39.3334951],[16.2427411,39.3335003],[16.242744,39.3332176],[16.2427037,39.3332173],[16.242704,39.3331939],[16.2419178,39.3331888]]}},{"type":"Feature","properties":{"area":"yes","highway":"pedestrian","osm_way_id":1275285158},"geometry":{"type":"LineString","coordinates":[[16.2527745,39.3254013],[16.2524729,39.3253526],[16.2525365,39.3251172],[16.2524901,39.3251097],[16.2524931,39.3250988],[16.2524964,39.3250865],[16.2525439,39.3250942],[16.2526012,39.3248815],[16.2528926,39.3249285],[16.2528741,39.3249971],[16.2529388,39.3250075],[16.2531484,39.3250413],[16.2532977,39.3250654],[16.2533605,39.3250755],[16.253317,39.3252369],[16.2532987,39.3253049],[16.2532342,39.3252945],[16.2530815,39.3252699],[16.25306,39.3253497],[16.2529049,39.3253247],[16.2529311,39.3252278],[16.2528259,39.3252108],[16.2527745,39.3254013]]}},{"type":"Feature","properties":{"area":"yes","area:highway":"footway","highway":"pedestrian","noname":"yes","osm_way_id":1275285159},"geometry":{"type":"LineString","coordinates":[[16.253403,39.325596],[16.2535181,39.3256154],[16.2535254,39.3255903],[16.2534543,39.3255782],[16.2535007,39.3254177],[16.2535328,39.325424],[16.2535621,39.3253254],[16.253748,39.3253589],[16.2536975,39.3255311],[16.2539895,39.3255824],[16.2540502,39.3253759],[16.2540863,39.3253823],[16.254084,39.3253637],[16.2540968,39.3253475],[16.2540584,39.3253407],[16.2541246,39.3251181],[16.2538312,39.3250681],[16.2537765,39.3252598],[16.2535942,39.3252297],[16.253621,39.3251367],[16.25354,39.325122],[16.2534965,39.3252663],[16.253403,39.325596]]}},{"type":"Feature","properties":{"area":"yes","highway":"pedestrian","lit":"yes","surface":"paving_stones","osm_way_id":1275399274},"geometry":{"type":"LineString","coordinates":[[16.2499804,39.3110707],[16.2504283,39.3110853],[16.2504508,39.3106723],[16.2504816,39.3106733],[16.2505135,39.3106743],[16.2505144,39.3106585],[16.2505279,39.3104102],[16.2505291,39.3103887],[16.2505351,39.3102798],[16.2504652,39.3102308],[16.2500996,39.3102189],[16.2500787,39.3106052],[16.2500423,39.310604],[16.2500059,39.3106029],[16.2499804,39.3110707]]}},{"type":"Feature","properties":{"highway":"pedestrian","lit":"yes","name":"Ponte Pietro Bucci","surface":"asphalt","osm_way_id":1279418410},"geometry":{"type":"LineString","coordinates":[[16.2262223,39.3612],[16.2262019,39.3613331],[16.2261819,39.3614632]]}},{"type":"Feature","properties":{"highway":"pedestrian","layer":"-1","lit":"yes","name":"Ponte P. Bucci","surface":"asphalt","tunnel":"yes","osm_way_id":1279418413},"geometry":{"type":"LineString","coordinates":[[16.2261473,39.3616885],[16.2261407,39.3617317]]}},{"type":"Feature","properties":{"highway":"pedestrian","lit":"yes","name":"Ponte Pietro Bucci","surface":"asphalt","osm_way_id":1279418414},"geometry":{"type":"LineString","coordinates":[[16.2261576,39.3616217],[16.2261473,39.3616885]]}},{"type":"Feature","properties":{"highway":"pedestrian","layer":"-1","lit":"yes","name":"Ponte P. Bucci","surface":"asphalt","tunnel":"yes","osm_way_id":1279418415},"geometry":{"type":"LineString","coordinates":[[16.2261819,39.3614632],[16.2261576,39.3616217]]}},{"type":"Feature","properties":{"crossing":"uncontrolled","crossing:island":"no","crossing:markings":"yes","footway":"crossing","highway":"footway","surface":"asphalt","osm_way_id":1279931862},"geometry":{"type":"LineString","coordinates":[[16.2405602,39.3287966],[16.2406224,39.3287957],[16.2407092,39.3287934]]}},{"type":"Feature","properties":{"area":"yes","highway":"pedestrian","osm_way_id":1279931863},"geometry":{"type":"LineString","coordinates":[[16.2405398,39.3283765],[16.2405576,39.3283784],[16.240604,39.3283832],[16.2407508,39.3284025],[16.2407558,39.3285307],[16.2408103,39.3285306],[16.2408226,39.3285129],[16.2408316,39.328513],[16.2408445,39.3285132],[16.2408456,39.3284759],[16.2408224,39.3284483],[16.2408113,39.3284293],[16.2408063,39.3284098],[16.2408111,39.3283718],[16.24083,39.3283109],[16.2408494,39.3282482],[16.2406987,39.3282193],[16.2406589,39.3282118],[16.2406268,39.3282056],[16.2406046,39.3282097],[16.2405785,39.328218],[16.2405557,39.3282289],[16.2405295,39.3282429],[16.2405114,39.3282601],[16.2404922,39.3283011],[16.2405398,39.3283765]]}},{"type":"Feature","properties":{"area":"yes","highway":"pedestrian","osm_way_id":1280319599},"geometry":{"type":"LineString","coordinates":[[16.2398966,39.3281364],[16.2400789,39.3273943],[16.2400769,39.3273409],[16.2401491,39.3272882],[16.2401696,39.3270671],[16.2402259,39.3270773],[16.2402606,39.3269776],[16.2403249,39.3269949],[16.24017,39.3274266],[16.240118,39.3274686],[16.2401411,39.3275245],[16.2399967,39.3279585],[16.2400795,39.327975],[16.2400444,39.3280805],[16.2400159,39.3281569],[16.2398966,39.3281364]]}},{"type":"Feature","properties":{"area":"yes","highway":"pedestrian","osm_way_id":1312076839},"geometry":{"type":"LineString","coordinates":[[16.2535159,39.3168689],[16.2536716,39.3165337],[16.2533431,39.3164424],[16.2531873,39.3167776],[16.2535159,39.3168689]]}},{"type":"Feature","properties":{"area":"yes","highway":"pedestrian","osm_way_id":1317110950},"geometry":{"type":"LineString","coordinates":[[16.2196462,39.3104472],[16.2197928,39.3104243],[16.2198776,39.3107456],[16.2197898,39.3107396],[16.2197145,39.3107218],[16.2196636,39.3105022],[16.2196462,39.3104472]]}},{"type":"Feature","properties":{"area":"yes","highway":"pedestrian","name":"Piazza Papa Giovanni Paolo II","osm_way_id":1317135650},"geometry":{"type":"LineString","coordinates":[[16.2140059,39.3085724],[16.2140932,39.3085416],[16.2141735,39.3085086],[16.2142883,39.3084858],[16.2142854,39.3084484],[16.2142844,39.3084348],[16.214283,39.3084169],[16.214268,39.3082278],[16.2141511,39.3082373],[16.2141521,39.3082436],[16.2139783,39.3082624],[16.2139495,39.3082454],[16.2138475,39.3081852],[16.2137852,39.3081484],[16.2137263,39.3081697],[16.2137402,39.3081944],[16.2137491,39.3082102],[16.2137608,39.308231],[16.2136064,39.3082955],[16.2135851,39.3083288],[16.213644,39.3083416],[16.2136832,39.3083587],[16.2137038,39.3083736],[16.2137511,39.3083527],[16.213795,39.3083626],[16.2138393,39.3083311],[16.2138867,39.3083684],[16.213902,39.3083977],[16.2139091,39.3084419],[16.2139001,39.3084887],[16.213882,39.3085262],[16.2138178,39.3085129],[16.2137968,39.3085602],[16.2138596,39.3086256],[16.2139496,39.3085929],[16.2140066,39.3086414],[16.2140544,39.3086603],[16.2140991,39.308671],[16.2141477,39.3086607],[16.2141737,39.308558],[16.2140312,39.3086138],[16.2140059,39.3085724]]}},{"type":"Feature","properties":{"area":"yes","highway":"pedestrian","name":"Piazza Pandosia","osm_way_id":1317555604},"geometry":{"type":"LineString","coordinates":[[16.1936691,39.3087171],[16.1936254,39.308717],[16.1936357,39.3085228],[16.1938142,39.3085277],[16.193844,39.3085279],[16.193845,39.3085004],[16.1939751,39.3084926],[16.1939741,39.3085952],[16.193968,39.3086066],[16.194045,39.3087537],[16.1940168,39.3088387],[16.1939436,39.3088368],[16.1938466,39.3088352],[16.1938473,39.3088135],[16.1938475,39.3087924],[16.1938437,39.3087685],[16.1938383,39.3087494],[16.1938069,39.3087141],[16.1937786,39.308691],[16.1937182,39.3086897],[16.1936931,39.3087134],[16.1936719,39.3087126],[16.1936691,39.3087171]]}},{"type":"Feature","properties":{"footway":"crossing","highway":"footway","osm_way_id":1321883732},"geometry":{"type":"LineString","coordinates":[[16.237247,39.3370314],[16.237245,39.337091],[16.2372416,39.3372127],[16.2372396,39.337334]]}},{"type":"Feature","properties":{"footway":"crossing","highway":"footway","osm_way_id":1321883733},"geometry":{"type":"LineString","coordinates":[[16.2379445,39.3370409],[16.237944,39.3370952],[16.2379415,39.3372161],[16.2379404,39.3373497],[16.2379394,39.3374818]]}},{"type":"Feature","properties":{"area":"yes","highway":"pedestrian","lit":"yes","surface":"paved","osm_way_id":1322498997},"geometry":{"type":"LineString","coordinates":[[16.2508531,39.2949113],[16.2508929,39.2948243],[16.2508994,39.2948099],[16.2508057,39.2947848],[16.2507715,39.2947756],[16.2505917,39.2947251],[16.2505944,39.2948469],[16.2507455,39.294884],[16.2508531,39.2949113]]}},{"type":"Feature","properties":{"crossing":"marked","crossing:markings":"yes","footway":"crossing","highway":"footway","osm_way_id":1322531194},"geometry":{"type":"LineString","coordinates":[[16.251436,39.2922087],[16.2514373,39.2922712]]}},{"type":"Feature","properties":{"area":"yes","highway":"pedestrian","osm_way_id":1322577291},"geometry":{"type":"LineString","coordinates":[[16.2294592,39.3066495],[16.2296931,39.3062711],[16.2294467,39.3061799],[16.2292128,39.3065584],[16.2294592,39.3066495]]}},{"type":"Feature","properties":{"highway":"pedestrian","name":"Via Temesa","osm_way_id":1322577293},"geometry":{"type":"LineString","coordinates":[[16.2294863,39.3067155],[16.2296116,39.3065194],[16.2297535,39.3062972]]}},{"type":"Feature","properties":{"highway":"pedestrian","osm_way_id":1322577298},"geometry":{"type":"LineString","coordinates":[[16.2296116,39.3065194],[16.2298107,39.3065933]]}},{"type":"Feature","properties":{"area":"yes","highway":"pedestrian","osm_way_id":1322577303},"geometry":{"type":"LineString","coordinates":[[16.2298335,39.307209],[16.2299704,39.3069953],[16.2298421,39.3069461],[16.2297053,39.3071598],[16.2298335,39.307209]]}},{"type":"Feature","properties":{"area":"yes","highway":"pedestrian","osm_way_id":1322581050},"geometry":{"type":"LineString","coordinates":[[16.2334745,39.3087641],[16.2338772,39.3088732],[16.2339701,39.3086748],[16.2335676,39.3085653],[16.2334745,39.3087641]]}},{"type":"Feature","properties":{"area":"yes","highway":"pedestrian","osm_way_id":1322581052},"geometry":{"type":"LineString","coordinates":[[16.2340085,39.3089088],[16.234249,39.3089769],[16.2343405,39.3087862],[16.2341021,39.308716],[16.2340085,39.3089088]]}},{"type":"Feature","properties":{"footway":"crossing","highway":"footway","osm_way_id":1322680266},"geometry":{"type":"LineString","coordinates":[[16.2497492,39.2974595],[16.2498252,39.2974597]]}},{"type":"Feature","properties":{"footway":"crossing","highway":"footway","osm_way_id":1322680267},"geometry":{"type":"LineString","coordinates":[[16.2497492,39.2974595],[16.2496821,39.2974597]]}},{"type":"Feature","properties":{"footway":"crossing","highway":"footway","osm_way_id":1322680268},"geometry":{"type":"LineString","coordinates":[[16.2497348,39.2969112],[16.2498023,39.2969119]]}},{"type":"Feature","properties":{"footway":"crossing","highway":"footway","osm_way_id":1322680269},"geometry":{"type":"LineString","coordinates":[[16.2497348,39.2969112],[16.2496719,39.2969107]]}},{"type":"Feature","properties":{"crossing":"uncontrolled","crossing:markings":"yes","footway":"crossing","highway":"footway","osm_way_id":1322934002},"geometry":{"type":"LineString","coordinates":[[16.2534965,39.3252663],[16.2534204,39.3252533],[16.253317,39.3252369]]}},{"type":"Feature","properties":{"area":"yes","highway":"pedestrian","osm_way_id":1323409615},"geometry":{"type":"LineString","coordinates":[[16.2522448,39.3264914],[16.2522614,39.3264948],[16.2522763,39.3264977],[16.2522249,39.3266707],[16.2522713,39.3266786],[16.2522301,39.3268227],[16.2521095,39.326802],[16.2521506,39.326658],[16.2521921,39.3266651],[16.2522448,39.3264914]]}},{"type":"Feature","properties":{"area":"yes","highway":"pedestrian","osm_way_id":1344311655},"geometry":{"type":"LineString","coordinates":[[16.246576,39.3217462],[16.24671,39.321751],[16.2466838,39.3220895],[16.2469284,39.3220928],[16.2469272,39.3221955],[16.2465498,39.3221908],[16.246576,39.3217462]]}},{"type":"Feature","properties":{"area":"yes","highway":"pedestrian","lit":"yes","surface":"paving_stones","osm_way_id":1345139761},"geometry":{"type":"LineString","coordinates":[[16.2519651,39.301844],[16.2519182,39.3018429],[16.2519171,39.3018793],[16.2519158,39.3019226],[16.2521435,39.3019278],[16.2523609,39.3019259],[16.2522921,39.3027974],[16.2523295,39.3027992],[16.2524345,39.3028044],[16.2524709,39.3025077],[16.2525412,39.3025128],[16.252547,39.3024434],[16.2525526,39.3023774],[16.2524469,39.3023766],[16.2524839,39.3020156],[16.2525257,39.301921],[16.2524392,39.3018638],[16.2523806,39.3018251],[16.2523142,39.3018376],[16.2519651,39.301844]]}},{"type":"Feature","properties":{"area":"yes","highway":"pedestrian","lit":"yes","surface":"paving_stones","osm_way_id":1345139762},"geometry":{"type":"LineString","coordinates":[[16.2532833,39.3005974],[16.2534483,39.3006306],[16.2536023,39.3006626],[16.2536256,39.3006032],[16.2536368,39.3005745],[16.2533145,39.3005061],[16.2533017,39.3005434],[16.2532833,39.3005974]]}},{"type":"Feature","properties":{"area":"yes","highway":"pedestrian","surface":"gomma","osm_way_id":1346428506},"geometry":{"type":"LineString","coordinates":[[16.2543683,39.3072385],[16.2544059,39.3070549],[16.2544145,39.3070308],[16.2544221,39.3070159],[16.2544319,39.3070005],[16.254447,39.3069869],[16.2545911,39.306884],[16.254524,39.3072202],[16.2543683,39.3072385]]}},{"type":"Feature","properties":{"area":"yes","highway":"pedestrian","lit":"yes","surface":"gomma","osm_way_id":1346428507},"geometry":{"type":"LineString","coordinates":[[16.2543866,39.3070194],[16.2544648,39.3066511],[16.2544875,39.3065372],[16.2545295,39.3063301],[16.2546454,39.30634],[16.2546555,39.3063415],[16.2546456,39.3063997],[16.2546729,39.306411],[16.2546852,39.3064309],[16.2546782,39.3064714],[16.2546616,39.3064708],[16.2546535,39.3064759],[16.2546227,39.3065382],[16.2546136,39.3065684],[16.2545557,39.3068767],[16.2544066,39.3069949],[16.2543866,39.3070194]]}},{"type":"Feature","properties":{"area":"yes","highway":"pedestrian","osm_way_id":1364064824},"geometry":{"type":"LineString","coordinates":[[16.2474698,39.3216465],[16.2471411,39.321631],[16.247165,39.3213277],[16.2472343,39.3213309],[16.2474936,39.3213431],[16.2474915,39.3213706],[16.2474698,39.3216465]]}},{"type":"Feature","properties":{"area":"yes","highway":"pedestrian","lit":"yes","name":"Piazza Mario Dodaro","surface":"paved","osm_way_id":1372648249},"geometry":{"type":"LineString","coordinates":[[16.221029,39.3098074],[16.2213138,39.3098568],[16.2213646,39.3098717],[16.2212878,39.3101619],[16.2209501,39.3101073],[16.2209647,39.3100605],[16.221029,39.3098074]]}},{"type":"Feature","properties":{"footway":"crossing","highway":"footway","traffic_calming":"table","osm_way_id":1384100712},"geometry":{"type":"LineString","coordinates":[[16.2467735,39.3425314],[16.2468184,39.3425371],[16.2468863,39.3425453],[16.2469861,39.3425558],[16.2470477,39.3425627],[16.2470866,39.3425672]]}},{"type":"Feature","properties":{"footway":"crossing","highway":"footway","traffic_calming":"table","osm_way_id":1384100713},"geometry":{"type":"LineString","coordinates":[[16.2471239,39.3406703],[16.2471611,39.3406742],[16.2472306,39.3406835],[16.2473277,39.3406947],[16.2474103,39.3407043],[16.247455,39.34071]]}},{"type":"Feature","properties":{"footway":"crossing","highway":"footway","traffic_calming":"table","osm_way_id":1384100714},"geometry":{"type":"LineString","coordinates":[[16.2473624,39.3394138],[16.2473924,39.3394173],[16.2474614,39.3394256],[16.2475593,39.3394399],[16.2476545,39.3394524],[16.2476742,39.3394541]]}},{"type":"Feature","properties":{"bicycle":"yes","crossing":"pedestrian_signals","crossing:island":"yes","footway":"crossing","highway":"footway","surface":"paving_stones","traffic_calming":"table","osm_way_id":1384100715},"geometry":{"type":"LineString","coordinates":[[16.2474748,39.3388301],[16.2474999,39.3388338],[16.2475686,39.3388436],[16.2476785,39.3388554],[16.2477575,39.3388634],[16.2478063,39.3388692]]}},{"type":"Feature","properties":{"footway":"crossing","highway":"footway","traffic_calming":"table","osm_way_id":1384100716},"geometry":{"type":"LineString","coordinates":[[16.2476426,39.338009],[16.2476666,39.3380116],[16.2477419,39.3380222],[16.2478344,39.3380334],[16.2479179,39.3380428],[16.2479646,39.3380484]]}},{"type":"Feature","properties":{"footway":"crossing","highway":"footway","surface":"sett","traffic_calming":"table","osm_way_id":1384100717},"geometry":{"type":"LineString","coordinates":[[16.2478299,39.3370924],[16.2478525,39.3370946],[16.2479162,39.3371029],[16.248026,39.3371151],[16.2480977,39.3371228]]}},{"type":"Feature","properties":{"footway":"crossing","highway":"footway","traffic_calming":"table","osm_way_id":1384100718},"geometry":{"type":"LineString","coordinates":[[16.2482128,39.3351216],[16.248259,39.3351259],[16.2483323,39.3351348],[16.2484357,39.3351459],[16.2485131,39.3351559],[16.2485602,39.3351621]]}},{"type":"Feature","properties":{"footway":"crossing","highway":"footway","surface":"sett","traffic_calming":"table","osm_way_id":1384100719},"geometry":{"type":"LineString","coordinates":[[16.247924,39.3365101],[16.2479603,39.3365143],[16.2480362,39.3365252],[16.2481379,39.3365383],[16.24822,39.3365477],[16.2482623,39.3365542]]}},{"type":"Feature","properties":{"footway":"crossing","highway":"footway","traffic_calming":"table","osm_way_id":1384100720},"geometry":{"type":"LineString","coordinates":[[16.2487662,39.3325802],[16.2488071,39.3325845],[16.2488639,39.3325916],[16.2489757,39.3326046],[16.2490507,39.3326131],[16.2490966,39.3326182]]}},{"type":"Feature","properties":{"footway":"crossing","highway":"footway","traffic_calming":"table","osm_way_id":1384100721},"geometry":{"type":"LineString","coordinates":[[16.2489534,39.3316613],[16.2490049,39.3316673],[16.2490592,39.3316734],[16.2491818,39.3316863],[16.2492458,39.331692],[16.2492921,39.3316964]]}},{"type":"Feature","properties":{"footway":"crossing","highway":"footway","traffic_calming":"table","osm_way_id":1384100722},"geometry":{"type":"LineString","coordinates":[[16.2490713,39.3310762],[16.2491257,39.3310822],[16.2491889,39.3310902],[16.2492997,39.3311036],[16.2493687,39.3311093],[16.249414,39.3311141]]}},{"type":"Feature","properties":{"footway":"crossing","highway":"footway","traffic_calming":"table","osm_way_id":1384100723},"geometry":{"type":"LineString","coordinates":[[16.2492941,39.3297112],[16.2493384,39.3297123],[16.2494089,39.3297138],[16.2495131,39.3297177],[16.2495895,39.329718],[16.2496285,39.329719]]}},{"type":"Feature","properties":{"area":"yes","highway":"pedestrian","name":"Largo Luigi Rocca","surface":"paved","osm_way_id":1384290088},"geometry":{"type":"LineString","coordinates":[[16.2193153,39.3061993],[16.2193952,39.3061045],[16.2193999,39.3060961],[16.2194005,39.3060891],[16.2193981,39.3060814],[16.2193944,39.3060751],[16.2193865,39.3060701],[16.2193765,39.3060665],[16.2193657,39.3060652],[16.2193549,39.3060661],[16.2193444,39.3060688],[16.2192388,39.306146],[16.2193153,39.3061993]]}},{"type":"Feature","properties":{"area":"yes","highway":"pedestrian","lit":"yes","surface":"paved","osm_way_id":1409209185},"geometry":{"type":"LineString","coordinates":[[16.2407521,39.3474437],[16.2407893,39.3473135],[16.2406422,39.3472941],[16.2405721,39.3474169],[16.2407521,39.3474437]]}},{"type":"Feature","properties":{"crossing":"zebra","crossing:island":"no","footway":"crossing","highway":"footway","surface":"asphalt","osm_way_id":1415657888},"geometry":{"type":"LineString","coordinates":[[16.2440467,39.3282764],[16.244154,39.3282751],[16.2442435,39.3282739]]}},{"type":"Feature","properties":{"crossing":"pedestrian_signals","crossing:island":"no","crossing:markings":"zebra","footway":"crossing","highway":"footway","surface":"paved","traffic_calming":"table","osm_way_id":1415657889},"geometry":{"type":"LineString","coordinates":[[16.2442825,39.3277235],[16.2441611,39.3277235],[16.2441389,39.3277235]]}},{"type":"Feature","properties":{"crossing":"unmarked","crossing:markings":"no","footway":"crossing","highway":"footway","surface":"asphalt","osm_way_id":1415657896},"geometry":{"type":"LineString","coordinates":[[16.2439258,39.327691],[16.2439129,39.327722],[16.2438997,39.3277539]]}},{"type":"Feature","properties":{"footway":"crossing","highway":"footway","osm_way_id":1415657899},"geometry":{"type":"LineString","coordinates":[[16.2440428,39.3271488],[16.2440432,39.327126]]}},{"type":"Feature","properties":{"footway":"crossing","highway":"footway","osm_way_id":1415691410},"geometry":{"type":"LineString","coordinates":[[16.2281067,39.3112889],[16.2280651,39.3113018],[16.2280307,39.3113107],[16.2279941,39.3113204]]}},{"type":"Feature","properties":{"area":"yes","highway":"pedestrian","lit":"yes","name":"Piazza Nicholas Green","surface":"paved","osm_way_id":1415922201},"geometry":{"type":"LineString","coordinates":[[16.2428705,39.3576625],[16.243039,39.357162],[16.2425491,39.3570633],[16.2423804,39.3575638],[16.2428705,39.3576625]]}},{"type":"Feature","properties":{"crossing":"unmarked","crossing:markings":"no","footway":"crossing","highway":"footway","osm_way_id":1416693704},"geometry":{"type":"LineString","coordinates":[[16.2411791,39.3288856],[16.241216,39.3288937],[16.2412531,39.3289019]]}},{"type":"Feature","properties":{"crossing":"uncontrolled","crossing:markings":"yes","footway":"crossing","highway":"footway","osm_way_id":1427723694},"geometry":{"type":"LineString","coordinates":[[16.2515061,39.3110312],[16.2516601,39.3110791],[16.2517293,39.3111023]]}},{"type":"Feature","properties":{"area":"yes","highway":"pedestrian","osm_way_id":1434331997},"geometry":{"type":"LineString","coordinates":[[16.32085,39.2843399],[16.3207107,39.2843593],[16.320764,39.2845206],[16.3208463,39.2845061],[16.32085,39.2843399]]}},{"type":"Feature","properties":{"area":"yes","highway":"pedestrian","lit":"yes","name":"Piazzetta Antonio MIrabelli","surface":"paved","osm_way_id":1446347388},"geometry":{"type":"LineString","coordinates":[[16.2415688,39.3232876],[16.2415708,39.3231418],[16.2413251,39.3231398],[16.2413242,39.323206],[16.2415688,39.3232876]]}},{"type":"Feature","properties":{"crossing":"uncontrolled","crossing:markings":"yes","footway":"crossing","highway":"footway","osm_way_id":1446399170},"geometry":{"type":"LineString","coordinates":[[16.2426538,39.3461877],[16.2426496,39.3462489],[16.242642,39.3463885],[16.2426416,39.3464246]]}},{"type":"Feature","properties":{"crossing":"uncontrolled","crossing:markings":"yes","footway":"crossing","highway":"footway","osm_way_id":1446399171},"geometry":{"type":"LineString","coordinates":[[16.2426027,39.345413],[16.2425491,39.3454121],[16.2425076,39.3454113]]}},{"type":"Feature","properties":{"footway":"crossing","highway":"footway","osm_way_id":1458229530},"geometry":{"type":"LineString","coordinates":[[16.2406268,39.3282056],[16.240628,39.3281852],[16.2406304,39.3281508]]}},{"type":"Feature","properties":{"crossing":"uncontrolled","crossing:markings":"yes","footway":"crossing","highway":"footway","osm_way_id":1469181051},"geometry":{"type":"LineString","coordinates":[[16.2339172,39.3804623],[16.2339413,39.3804752],[16.2341061,39.3805638],[16.2341301,39.3805767]]}},{"type":"Feature","properties":{"crossing":"uncontrolled","crossing:markings":"yes","footway":"crossing","highway":"footway","osm_way_id":1469181052},"geometry":{"type":"LineString","coordinates":[[16.2334839,39.3804464],[16.2335896,39.3803352],[16.23361,39.3803139]]}},{"type":"Feature","properties":{"footway":"crossing","highway":"footway","surface":"asphalt","osm_way_id":1494067297},"geometry":{"type":"LineString","coordinates":[[16.2579631,39.2988151],[16.2579576,39.2987976],[16.258341,39.2987259]]}},{"type":"Feature","properties":{"crossing":"uncontrolled","crossing:markings":"zebra","footway":"crossing","highway":"footway","osm_way_id":1494067299},"geometry":{"type":"LineString","coordinates":[[16.2571277,39.3030181],[16.2570807,39.3030181]]}},{"type":"Feature","properties":{"crossing":"uncontrolled","crossing:markings":"zebra","footway":"crossing","highway":"footway","osm_way_id":1494067300},"geometry":{"type":"LineString","coordinates":[[16.2570861,39.3040283],[16.2570284,39.3040267]]}},{"type":"Feature","properties":{"crossing":"uncontrolled","crossing:markings":"zebra","footway":"crossing","highway":"footway","osm_way_id":1494067301},"geometry":{"type":"LineString","coordinates":[[16.257111,39.3043426],[16.257111,39.3043236]]}},{"type":"Feature","properties":{"crossing":"uncontrolled","crossing:markings":"zebra","footway":"crossing","highway":"footway","osm_way_id":1494067303},"geometry":{"type":"LineString","coordinates":[[16.2571223,39.3035673],[16.2570526,39.3035675]]}}]}