{"type":"FeatureCollection","name":"schools-poi-cosenza-rende","properties":{"source":"OpenStreetMap (Overpass API)","license":"ODbL 1.0","bbox":"39.25,16.14 \u2014 39.42,16.33","osm_timestamp":"2026-05-03T19:36:00Z","classification_note":"Categorie euristiche da nome/amenity OSM; verificare su OSM e integrare isced:level dove possibile. POI senza nome in OSM hanno poi_uid school-poi-anon-<tipo>-<id> per modifica manuale."},"features":[{"type":"Feature","properties":{"kind":"school_poi","category":"non_classificata","category_label":"Scuola (OSM) \u2014 nome generico o tag incompleti; integra su openstreetmap.org","name":"Senza nome","amenity":"school","osm_type":"node","osm_id":1428094278,"poi_uid":"school-poi-anon-node-1428094278"},"geometry":{"type":"Point","coordinates":[16.186282,39.3320912]}},{"type":"Feature","properties":{"kind":"school_poi","category":"superiori","category_label":"Convitto / collegio","name":"Convitto Nazionale Bernardino Telesio","amenity":"school","addr:street":"Via del Liceo","addr:city":"Cosenza","addr:postcode":"87100","osm_type":"node","osm_id":3081362915},"geometry":{"type":"Point","coordinates":[16.2601963,39.2865638]}},{"type":"Feature","properties":{"kind":"school_poi","category":"superiori","category_label":"Liceo / II grado","name":"Antico Liceo Ginnasio Telesio","amenity":"school","osm_type":"node","osm_id":3081362917},"geometry":{"type":"Point","coordinates":[16.2607429,39.2867371]}},{"type":"Feature","properties":{"kind":"school_poi","category":"non_classificata","category_label":"Scuola (OSM) \u2014 nome generico o tag incompleti; integra su openstreetmap.org","name":"Scuola","amenity":"school","osm_type":"node","osm_id":3081362926},"geometry":{"type":"Point","coordinates":[16.2577529,39.28888]}},{"type":"Feature","properties":{"kind":"school_poi","category":"superiori","category_label":"Secondaria di II grado (amenity=college)","name":"Liceo Scientifico-Linguistico \"Pitagora\"","amenity":"college","osm_type":"node","osm_id":11811506400},"geometry":{"type":"Point","coordinates":[16.2411939,39.3292427]}},{"type":"Feature","properties":{"kind":"school_poi","category":"comprensivo","category_label":"Istituto comprensivo (polo pluriordine)","name":"Istituto Comprensivo statale \"Spirito Santo\"","amenity":"school","osm_type":"node","osm_id":11887686514},"geometry":{"type":"Point","coordinates":[16.2638816,39.2874462]}},{"type":"Feature","properties":{"kind":"school_poi","category":"superiori","category_label":"Secondaria di II grado (amenity=college)","name":"IIS \"Marconi - Guarasci\" - Cosenza","amenity":"college","osm_type":"node","osm_id":12136057610},"geometry":{"type":"Point","coordinates":[16.2279418,39.3067282]}},{"type":"Feature","properties":{"kind":"school_poi","category":"non_classificata","category_label":"Scuola (OSM) \u2014 nome generico o tag incompleti; integra su openstreetmap.org","name":"Senza nome","amenity":"school","osm_type":"node","osm_id":12153504008,"poi_uid":"school-poi-anon-node-12153504008"},"geometry":{"type":"Point","coordinates":[16.2583741,39.2981874]}},{"type":"Feature","properties":{"kind":"school_poi","category":"superiori","category_label":"Secondaria di II grado (amenity=college)","name":"Liceo Scientifico \"Enrico Fermi\"","amenity":"college","osm_type":"node","osm_id":12153504018},"geometry":{"type":"Point","coordinates":[16.2550739,39.3008064]}},{"type":"Feature","properties":{"kind":"school_poi","category":"superiori","category_label":"Secondaria di II grado (amenity=college)","name":"Liceo Scientifico Statale \"E. Fermi\"","amenity":"college","osm_type":"node","osm_id":12170343426},"geometry":{"type":"Point","coordinates":[16.2586827,39.304031]}},{"type":"Feature","properties":{"kind":"school_poi","category":"superiori","category_label":"Secondaria di II grado (amenity=college)","name":"Istituto Tecnico Statale per Geometri \"Salvatore Quasimodo\"","amenity":"college","osm_type":"node","osm_id":12170343427},"geometry":{"type":"Point","coordinates":[16.2588083,39.3044569]}},{"type":"Feature","properties":{"kind":"school_poi","category":"superiori","category_label":"Secondaria di II grado (amenity=college)","name":"Istituto Tecnico Agrario \"G. Tommasi\"","amenity":"college","osm_type":"node","osm_id":12190104546},"geometry":{"type":"Point","coordinates":[16.2414096,39.3135218]}},{"type":"Feature","properties":{"kind":"school_poi","category":"infanzia","category_label":"Asilo nido / scuola dell'infanzia (amenity=kindergarten)","name":"Asilo Comunale","amenity":"kindergarten","osm_type":"node","osm_id":12194834071},"geometry":{"type":"Point","coordinates":[16.2124953,39.3070138]}},{"type":"Feature","properties":{"kind":"school_poi","category":"infanzia","category_label":"Asilo nido / scuola dell'infanzia (amenity=kindergarten)","name":"Senza nome","amenity":"kindergarten","osm_type":"node","osm_id":12194842632,"poi_uid":"school-poi-anon-node-12194842632"},"geometry":{"type":"Point","coordinates":[16.2255739,39.3089047]}},{"type":"Feature","properties":{"kind":"school_poi","category":"non_classificata","category_label":"Scuola (OSM) \u2014 nome generico o tag incompleti; integra su openstreetmap.org","name":"Senza nome","amenity":"school","osm_type":"way","osm_id":69603608,"poi_uid":"school-poi-anon-way-69603608"},"geometry":{"type":"Point","coordinates":[16.2401714,39.3927127]}},{"type":"Feature","properties":{"kind":"school_poi","category":"superiori","category_label":"Liceo / II grado","name":"Liceo classico statale \"Gioacchino da Fiore\"","amenity":"school","osm_type":"way","osm_id":121915306},"geometry":{"type":"Point","coordinates":[16.2434431,39.3481351]}},{"type":"Feature","properties":{"kind":"school_poi","category":"infanzia","category_label":"Asilo nido / scuola dell'infanzia (amenity=kindergarten)","name":"Senza nome","amenity":"kindergarten","osm_type":"way","osm_id":259750734,"poi_uid":"school-poi-anon-way-259750734"},"geometry":{"type":"Point","coordinates":[16.2407503,39.3432212]}},{"type":"Feature","properties":{"kind":"school_poi","category":"infanzia","category_label":"Asilo nido / scuola dell'infanzia (amenity=kindergarten)","name":"Senza nome","amenity":"kindergarten","osm_type":"way","osm_id":259887648,"poi_uid":"school-poi-anon-way-259887648"},"geometry":{"type":"Point","coordinates":[16.2446645,39.3252291]}},{"type":"Feature","properties":{"kind":"school_poi","category":"media","category_label":"Scuola secondaria di I grado (media)","name":"scuola media \"Fratelli Bandiera\"","amenity":"school","osm_type":"way","osm_id":438432604},"geometry":{"type":"Point","coordinates":[16.2853381,39.2577445]}},{"type":"Feature","properties":{"kind":"school_poi","category":"non_classificata","category_label":"Scuola (OSM) \u2014 nome generico o tag incompleti; integra su openstreetmap.org","name":"Senza nome","amenity":"school","osm_type":"way","osm_id":480825686,"poi_uid":"school-poi-anon-way-480825686"},"geometry":{"type":"Point","coordinates":[16.2588178,39.3042166]}},{"type":"Feature","properties":{"kind":"school_poi","category":"comprensivo","category_label":"Istituto comprensivo (polo pluriordine)","name":"Istituto Comprensivo Statale","amenity":"school","osm_type":"way","osm_id":634946726},"geometry":{"type":"Point","coordinates":[16.1431092,39.339112]}},{"type":"Feature","properties":{"kind":"school_poi","category":"infanzia","category_label":"Asilo nido / scuola dell'infanzia (amenity=kindergarten)","name":"Istituto Comprensivo Statale","amenity":"kindergarten","osm_type":"way","osm_id":634963789},"geometry":{"type":"Point","coordinates":[16.1434682,39.3392435]}},{"type":"Feature","properties":{"kind":"school_poi","category":"non_classificata","category_label":"Scuola (OSM) \u2014 nome generico o tag incompleti; integra su openstreetmap.org","name":"Senza nome","amenity":"school","osm_type":"way","osm_id":659089053,"poi_uid":"school-poi-anon-way-659089053"},"geometry":{"type":"Point","coordinates":[16.223715,39.334021]}},{"type":"Feature","properties":{"kind":"school_poi","category":"non_classificata","category_label":"Scuola (OSM) \u2014 nome generico o tag incompleti; integra su openstreetmap.org","name":"Senza nome","amenity":"school","osm_type":"way","osm_id":744351869,"poi_uid":"school-poi-anon-way-744351869"},"geometry":{"type":"Point","coordinates":[16.1544834,39.4029377]}},{"type":"Feature","properties":{"kind":"school_poi","category":"non_classificata","category_label":"Scuola (OSM) \u2014 nome generico o tag incompleti; integra su openstreetmap.org","name":"Senza nome","amenity":"school","osm_type":"way","osm_id":744351870,"poi_uid":"school-poi-anon-way-744351870"},"geometry":{"type":"Point","coordinates":[16.1537717,39.403226]}},{"type":"Feature","properties":{"kind":"school_poi","category":"superiori","category_label":"Istituto tecnico (sigla I.T.C. / I.T.I.)","name":"ITI A. Monaco","amenity":"school","addr:street":"Via Giulia","addr:housenumber":"9","addr:city":"Cosenza","addr:postcode":"87100","website":"https://www.itimonaco.edu.it/","osm_type":"way","osm_id":808505706},"geometry":{"type":"Point","coordinates":[16.2554033,39.3095789]}},{"type":"Feature","properties":{"kind":"school_poi","category":"superiori","category_label":"Liceo / II grado","name":"Liceo Classico B. Telesio","amenity":"school","website":"https://www.liceotelesiocosenza.edu.it/","osm_type":"way","osm_id":1025875566},"geometry":{"type":"Point","coordinates":[16.261443,39.2854879]}},{"type":"Feature","properties":{"kind":"school_poi","category":"non_classificata","category_label":"Scuola (OSM) \u2014 nome generico o tag incompleti; integra su openstreetmap.org","name":"Senza nome","amenity":"school","osm_type":"way","osm_id":1062366020,"poi_uid":"school-poi-anon-way-1062366020"},"geometry":{"type":"Point","coordinates":[16.2947848,39.3974387]}},{"type":"Feature","properties":{"kind":"school_poi","category":"superiori","category_label":"Liceo / II grado","name":"Liceo Scientifico G.B. Scorza","amenity":"school","addr:street":"Via Popilia","addr:city":"Cosenza","addr:postcode":"87100","website":"https://www.liceoscorza.edu.it/","osm_type":"way","osm_id":1212251612},"geometry":{"type":"Point","coordinates":[16.2544722,39.3110178]}},{"type":"Feature","properties":{"kind":"school_poi","category":"superiori","category_label":"Istituto tecnico (sigla I.T.C. / I.T.I.)","name":"I.T.C. G. Pezzullo","amenity":"school","addr:street":"Via Popilia","addr:city":"Cosenza","addr:postcode":"87100","osm_type":"way","osm_id":1212251613},"geometry":{"type":"Point","coordinates":[16.2556484,39.3115713]}},{"type":"Feature","properties":{"kind":"school_poi","category":"superiori","category_label":"Istituto professionale / tecnico","name":"IPSS Da Vinci","amenity":"school","osm_type":"way","osm_id":1270438166},"geometry":{"type":"Point","coordinates":[16.2513645,39.3154604]}},{"type":"Feature","properties":{"kind":"school_poi","category":"superiori","category_label":"IISS / IIS","name":"Istituto di Istruzione Superiore Statale \"Valentini-Majorana\"","amenity":"school","osm_type":"way","osm_id":1270845544},"geometry":{"type":"Point","coordinates":[16.2310837,39.3140166]}},{"type":"Feature","properties":{"kind":"school_poi","category":"comprensivo","category_label":"Istituto comprensivo (polo pluriordine)","name":"Istituto Comprensivo Statale \u201cFausto Gullo\u201d","amenity":"school","addr:street":"Via Popilia","addr:city":"Cosenza","addr:postcode":"87100","osm_type":"way","osm_id":1270859606},"geometry":{"type":"Point","coordinates":[16.2563851,39.3039663]}},{"type":"Feature","properties":{"kind":"school_poi","category":"comprensivo","category_label":"Istituto comprensivo (polo pluriordine)","name":"Instituto Comprensivo Ic Cs V D.Milani-De Matera","amenity":"school","osm_type":"way","osm_id":1273826771},"geometry":{"type":"Point","coordinates":[16.2500755,39.3081569]}},{"type":"Feature","properties":{"kind":"school_poi","category":"elementare","category_label":"Scuola primaria (elementare)","name":"Scuola Elementare G. Stancati","amenity":"school","osm_type":"way","osm_id":1280705772},"geometry":{"type":"Point","coordinates":[16.2396594,39.3298648]}},{"type":"Feature","properties":{"kind":"school_poi","category":"non_classificata","category_label":"Scuola (OSM) \u2014 nome generico o tag incompleti; integra su openstreetmap.org","name":"Senza nome","amenity":"school","osm_type":"way","osm_id":1280705773,"poi_uid":"school-poi-anon-way-1280705773"},"geometry":{"type":"Point","coordinates":[16.2403265,39.3297578]}},{"type":"Feature","properties":{"kind":"school_poi","category":"infanzia","category_label":"Scuola dell'infanzia","name":"Scuola dell'Infanzia Macchina Di Bosco","amenity":"school","osm_type":"way","osm_id":1280705774},"geometry":{"type":"Point","coordinates":[16.2404076,39.3304283]}},{"type":"Feature","properties":{"kind":"school_poi","category":"elementare","category_label":"Scuola primaria (elementare)","name":"Scuola Elementare Lidia Plastina Pizzuti","amenity":"school","addr:street":"Via Riccardo Misasi","addr:city":"Cosenza","addr:postcode":"87100","osm_type":"way","osm_id":1280715418},"geometry":{"type":"Point","coordinates":[16.2494364,39.3024482]}},{"type":"Feature","properties":{"kind":"school_poi","category":"superiori","category_label":"IISS / IIS","name":"Istituto d'Istruzione Superiore Da Vinci - Nitti","amenity":"school","osm_type":"way","osm_id":1280715419},"geometry":{"type":"Point","coordinates":[16.2488239,39.2961479]}},{"type":"Feature","properties":{"kind":"school_poi","category":"superiori","category_label":"IISS / IIS","name":"Istituto d'Istruzione Superiore \"Alberghiero-Tecnico-Agrario\" Mancini-Tommasi","amenity":"school","osm_type":"way","osm_id":1280715420},"geometry":{"type":"Point","coordinates":[16.254592,39.304192]}},{"type":"Feature","properties":{"kind":"school_poi","category":"superiori","category_label":"Liceo / II grado","name":"Liceo Linguistico, delle Scienze Umane, Musicale e artistico \"Lucrezia Della Valle\"","amenity":"school","addr:street":"Piazza Giovanni Amendola","addr:city":"Cosenza","addr:postcode":"87100","website":"https://www.iislucreziadellavalle.edu.it/","osm_type":"way","osm_id":1280715421},"geometry":{"type":"Point","coordinates":[16.2519698,39.291373]}},{"type":"Feature","properties":{"kind":"school_poi","category":"non_classificata","category_label":"Scuola (OSM) \u2014 nome generico o tag incompleti; integra su openstreetmap.org","name":"Senza nome","amenity":"school","osm_type":"way","osm_id":1280715422,"poi_uid":"school-poi-anon-way-1280715422"},"geometry":{"type":"Point","coordinates":[16.2638108,39.2874875]}},{"type":"Feature","properties":{"kind":"school_poi","category":"elementare","category_label":"Scuola primaria (elementare)","name":"Scuola Primaria \"Mario Dionesalvi\"","amenity":"school","osm_type":"way","osm_id":1280715423},"geometry":{"type":"Point","coordinates":[16.2558323,39.3084274]}},{"type":"Feature","properties":{"kind":"school_poi","category":"elementare","category_label":"Scuola primaria (elementare)","name":"Scuola Elementare \"Corrado Alvaro\"","amenity":"school","addr:street":"Via Antonio Negroni","addr:city":"Cosenza","addr:postcode":"87100","osm_type":"way","osm_id":1280715424},"geometry":{"type":"Point","coordinates":[16.2489963,39.3153468]}},{"type":"Feature","properties":{"kind":"school_poi","category":"comprensivo","category_label":"Istituto comprensivo (polo pluriordine)","name":"Istituto Comprensivo Statale Cosenza Terzo \"Roberta Lanzino\"","amenity":"school","addr:street":"Via Antonio Negroni","addr:city":"Cosenza","addr:postcode":"87100","osm_type":"way","osm_id":1280715425},"geometry":{"type":"Point","coordinates":[16.2481523,39.3152916]}},{"type":"Feature","properties":{"kind":"school_poi","category":"non_classificata","category_label":"Scuola (OSM) \u2014 nome generico o tag incompleti; integra su openstreetmap.org","name":"Senza nome","amenity":"school","addr:street":"Via Riccardo Misasi","addr:city":"Cosenza","addr:postcode":"87100","osm_type":"way","osm_id":1313025346,"poi_uid":"school-poi-anon-way-1313025346"},"geometry":{"type":"Point","coordinates":[16.2496162,39.304085]}},{"type":"Feature","properties":{"kind":"school_poi","category":"elementare","category_label":"Scuola primaria (elementare)","name":"Scuola Primaria \"G. Falcone\"","amenity":"school","osm_type":"way","osm_id":1315312509},"geometry":{"type":"Point","coordinates":[16.2549671,39.3025745]}},{"type":"Feature","properties":{"kind":"school_poi","category":"elementare","category_label":"Scuola primaria (elementare)","name":"Scuola Elementare \"Scipione Valentini\"","amenity":"school","osm_type":"way","osm_id":1316778179},"geometry":{"type":"Point","coordinates":[16.2414245,39.3078977]}},{"type":"Feature","properties":{"kind":"school_poi","category":"media","category_label":"Scuola secondaria di I grado (media)","name":"Scuola Secondaria di primo grado","amenity":"school","osm_type":"way","osm_id":1317110946},"geometry":{"type":"Point","coordinates":[16.2195583,39.3110165]}},{"type":"Feature","properties":{"kind":"school_poi","category":"non_classificata","category_label":"Scuola (OSM) \u2014 nome generico o tag incompleti; integra su openstreetmap.org","name":"Senza nome","amenity":"school","osm_type":"way","osm_id":1317110951,"poi_uid":"school-poi-anon-way-1317110951"},"geometry":{"type":"Point","coordinates":[16.21928,39.3100945]}},{"type":"Feature","properties":{"kind":"school_poi","category":"elementare","category_label":"Scuola primaria (elementare)","name":"Scuola Elementare \"Emma Tavolaro\"","amenity":"school","addr:street":"Via Domenico Milelli","addr:city":"Cosenza","addr:postcode":"87100","osm_type":"way","osm_id":1317617104},"geometry":{"type":"Point","coordinates":[16.254042,39.2912728]}},{"type":"Feature","properties":{"kind":"school_poi","category":"infanzia","category_label":"Asilo nido / scuola dell'infanzia (amenity=kindergarten)","name":"Senza nome","amenity":"kindergarten","osm_type":"way","osm_id":1322311610,"poi_uid":"school-poi-anon-way-1322311610"},"geometry":{"type":"Point","coordinates":[16.2469318,39.3211718]}},{"type":"Feature","properties":{"kind":"school_poi","category":"non_classificata","category_label":"Scuola (OSM) \u2014 nome generico o tag incompleti; integra su openstreetmap.org","name":"Senza nome","amenity":"school","osm_type":"way","osm_id":1341067099,"poi_uid":"school-poi-anon-way-1341067099"},"geometry":{"type":"Point","coordinates":[16.2377515,39.3256915]}},{"type":"Feature","properties":{"kind":"school_poi","category":"non_classificata","category_label":"Scuola (OSM) \u2014 nome generico o tag incompleti; integra su openstreetmap.org","name":"Senza nome","amenity":"school","osm_type":"way","osm_id":1344311652,"poi_uid":"school-poi-anon-way-1344311652"},"geometry":{"type":"Point","coordinates":[16.2476607,39.3212542]}},{"type":"Feature","properties":{"kind":"school_poi","category":"comprensivo","category_label":"Istituto comprensivo (polo pluriordine)","name":"Istituto Comprensivo Statale Rende-Commenda","amenity":"school","osm_type":"way","osm_id":1358122089},"geometry":{"type":"Point","coordinates":[16.2398714,39.3380927]}},{"type":"Feature","properties":{"kind":"school_poi","category":"infanzia","category_label":"Asilo nido / scuola dell'infanzia (amenity=kindergarten)","name":"Scuola dell'infanzia \"Natalia Ginzburg\"","amenity":"kindergarten","osm_type":"way","osm_id":1365027478},"geometry":{"type":"Point","coordinates":[16.244433,39.3152468]}},{"type":"Feature","properties":{"kind":"school_poi","category":"non_classificata","category_label":"Scuola (OSM) \u2014 nome generico o tag incompleti; integra su openstreetmap.org","name":"Senza nome","amenity":"school","osm_type":"way","osm_id":1366242281,"poi_uid":"school-poi-anon-way-1366242281"},"geometry":{"type":"Point","coordinates":[16.2566263,39.317742]}},{"type":"Feature","properties":{"kind":"school_poi","category":"non_classificata","category_label":"Scuola (OSM) \u2014 nome generico o tag incompleti; integra su openstreetmap.org","name":"Senza nome","amenity":"school","osm_type":"way","osm_id":1366249727,"poi_uid":"school-poi-anon-way-1366249727"},"geometry":{"type":"Point","coordinates":[16.2502649,39.29039]}},{"type":"Feature","properties":{"kind":"school_poi","category":"non_classificata","category_label":"Scuola (OSM) \u2014 nome generico o tag incompleti; integra su openstreetmap.org","name":"Senza nome","amenity":"school","addr:street":"Via Gerolamo De Rada","addr:city":"Cosenza","addr:postcode":"87100","osm_type":"way","osm_id":1366331186,"poi_uid":"school-poi-anon-way-1366331186"},"geometry":{"type":"Point","coordinates":[16.2454237,39.3031081]}},{"type":"Feature","properties":{"kind":"school_poi","category":"non_classificata","category_label":"Scuola (OSM) \u2014 nome generico o tag incompleti; integra su openstreetmap.org","name":"Senza nome","amenity":"school","osm_type":"way","osm_id":1388964439,"poi_uid":"school-poi-anon-way-1388964439"},"geometry":{"type":"Point","coordinates":[16.3191227,39.3087037]}},{"type":"Feature","properties":{"kind":"school_poi","category":"non_classificata","category_label":"Scuola (OSM) \u2014 nome generico o tag incompleti; integra su openstreetmap.org","name":"Senza nome","amenity":"school","osm_type":"way","osm_id":1388964441,"poi_uid":"school-poi-anon-way-1388964441"},"geometry":{"type":"Point","coordinates":[16.3067238,39.2994907]}},{"type":"Feature","properties":{"kind":"school_poi","category":"comprensivo","category_label":"Istituto comprensivo (polo pluriordine)","name":"Istituto Comprensivo Carolei Dipignano \"Rendano - Valentini\"","amenity":"school","osm_type":"way","osm_id":1390729851},"geometry":{"type":"Point","coordinates":[16.2209658,39.2542139]}},{"type":"Feature","properties":{"kind":"school_poi","category":"non_classificata","category_label":"Scuola (OSM) \u2014 nome generico o tag incompleti; integra su openstreetmap.org","name":"Senza nome","amenity":"school","osm_type":"way","osm_id":1390753562,"poi_uid":"school-poi-anon-way-1390753562"},"geometry":{"type":"Point","coordinates":[16.2186037,39.2548222]}},{"type":"Feature","properties":{"kind":"school_poi","category":"infanzia","category_label":"Scuola dell'infanzia","name":"Scuola dell'Infanzia","amenity":"school","osm_type":"way","osm_id":1395469430},"geometry":{"type":"Point","coordinates":[16.2605965,39.2945244]}},{"type":"Feature","properties":{"kind":"school_poi","category":"comprensivo","category_label":"Istituto comprensivo (polo pluriordine)","name":"Istituto Comprensivo \"G. Falcone\"","amenity":"school","osm_type":"way","osm_id":1408281503},"geometry":{"type":"Point","coordinates":[16.2407002,39.3548194]}},{"type":"Feature","properties":{"kind":"school_poi","category":"non_classificata","category_label":"Scuola (OSM) \u2014 nome generico o tag incompleti; integra su openstreetmap.org","name":"Senza nome","amenity":"school","osm_type":"way","osm_id":1408605056,"poi_uid":"school-poi-anon-way-1408605056"},"geometry":{"type":"Point","coordinates":[16.243193,39.3326511]}},{"type":"Feature","properties":{"kind":"school_poi","category":"infanzia","category_label":"Scuola dell'infanzia","name":"Scuola dell'infanzia","amenity":"school","osm_type":"way","osm_id":1408828727},"geometry":{"type":"Point","coordinates":[16.2412841,39.3461601]}},{"type":"Feature","properties":{"kind":"school_poi","category":"comprensivo","category_label":"Istituto comprensivo (polo pluriordine)","name":"Istituto Comprensivo \"Bonaventura Zumbini\"","amenity":"school","addr:street":"Via Riccardo Misasi","addr:city":"Cosenza","addr:postcode":"87100","osm_type":"way","osm_id":1413211529},"geometry":{"type":"Point","coordinates":[16.2506224,39.3023719]}},{"type":"Feature","properties":{"kind":"school_poi","category":"non_classificata","category_label":"Scuola (OSM) \u2014 nome generico o tag incompleti; integra su openstreetmap.org","name":"Senza nome","amenity":"school","osm_type":"way","osm_id":1419344355,"poi_uid":"school-poi-anon-way-1419344355"},"geometry":{"type":"Point","coordinates":[16.2815079,39.2820031]}},{"type":"Feature","properties":{"kind":"school_poi","category":"non_classificata","category_label":"Scuola (OSM) \u2014 nome generico o tag incompleti; integra su openstreetmap.org","name":"Senza nome","amenity":"school","osm_type":"way","osm_id":1430903342,"poi_uid":"school-poi-anon-way-1430903342"},"geometry":{"type":"Point","coordinates":[16.2273558,39.3324762]}},{"type":"Feature","properties":{"kind":"school_poi","category":"superiori","category_label":"Istituto tecnico","name":"Istituto Tecnico Commerciale Statale \"V. Cosentino\"","amenity":"school","osm_type":"way","osm_id":1478877716},"geometry":{"type":"Point","coordinates":[16.2476152,39.3332642]}}]}